 2013 1001 1809 08.4 L   5.405  -0.529 15.0  BER  5 .60 3.3LBER                1
 GAP=273   BER  1.48       9.1     4.6 16.4  0.4521E+01  0.3551E+02  0.4046E+02E
 2013-10-01-1807-14S.NSN___015                                                 6
 OLDACT:REG 21-08-27 21:40 OP:opt  STATUS:               ID:20131001180714     3
 OLDACT:UP  21-08-28 14:51 OP:opt  STATUS:               ID:20131001180714     3
 OLDACT:UP  21-08-28 14:51 OP:opt  STATUS:               ID:20131001180714     3
 OLDACT:UP  21-08-28 14:51 OP:opt  STATUS:               ID:20131001180714     3
 OLDACT:UP  21-08-29 21:18 OP:opt  STATUS:               ID:20131001180714     3
 OLDACT:UP  21-12-03 13:26 OP:opt  STATUS:               ID:20131001180714     3
 OLDACT:UP  21-12-12 11:31 OP:opt  STATUS:               ID:20131001180714     3
 ACTION:UP  21-12-24 13:05 OP:opt  STATUS:               ID:20131001180714     I
 OLDACT:UP  21-12-23 17:45 OP:opt  STATUS:               ID:20131001180714     3
 STAT COM NTLO IPHASE   W HHMM SS.SSS   PAR1  PAR2 AGA OPE  AIN  RES W  DIS CAZ7
 WEIJ HHZ GH   IP         1809 14.250              BER opt113.0 0.4010 29.7  47 
 WEIJ HHN GH   ISg        1809 17.000              BER opt113.0-0.6810 29.7  47 
 WEIJ HHN GH    IAML      1809 17.450 2702.5  0.22 BER opt     -0.26   29.7  47 
 KUKU HHZ GH   IP         1809 22.390              BER opt 92.0-0.7110 88.9  11 
 KUKU HHN GH    IAML      1809 23.440  836.0  0.10 BER opt     -0.18   88.9  11 
 KUKU HHN GH   ISg        1809 34.220              BER opt 92.0 0.8210 88.9  11 
 AKOS HHZ GH   IP         1809 27.840              BER opt 91.0-0.0210  119  34 
 AKOS HHN GH   ISg        1809 41.680              BER opt 91.0 0.1910  119  34 
 AKOS HHN GH    IAML      1809 49.570  771.0  0.10 BER opt     -0.02    119  34 
 MRON HHN GH   IP         1809 34.360              BER opt 91.0 0.8510  154 319 
 MRON HHN GH   ISg        1809 50.350              BER opt 91.0-0.7610  154 319 
 KLEF HHZ GH   IP         1809 36.160              BER opt 76.0-0.0210  171  39 
 KLEF HHN GH   ISg        1809 55.610              BER opt 90.0-0.0810  171  39 
 KLEF HHN GH    IAML      1809 59.160 1181.0  0.56 BER opt      0.44    171  39 
                                                                                
 2013 1013 1321 34.5 L   5.486  -0.354 10.9  BER  5 .30 4.0LBER                1
 GAP=277   BER 0.770       4.7     2.4  3.8 -0.2745E+01  0.6972E+00  0.3008E+01E
 2013-10-13-1319-37S.NSN___015                                                 6
 OLDACT:REG 21-08-27 21:37 OP:opt  STATUS:               ID:20131013131937     3
 OLDACT:UP  21-08-28 14:55 OP:opt  STATUS:               ID:20131013131937     3
 OLDACT:UP  21-12-03 13:26 OP:opt  STATUS:               ID:20131013131937     3
 OLDACT:UP  21-12-12 11:31 OP:opt  STATUS:               ID:20131013131937     3
 ACTION:UP  21-12-24 13:06 OP:opt  STATUS:               ID:20131013131937     I
 OLDACT:UP  21-12-23 17:45 OP:opt  STATUS:               ID:20131013131937     3
 STAT COM NTLO IPHASE   W HHMM SS.SSS   PAR1  PAR2 AGA OPE  AIN  RES W  DIS CAZ7
 WEIJ HHZ GH   IP         1321 37.100              BER opt134.0 0.0110 11.5  11 
 WEIJ HHE GH   ISg        1321 38.750              BER opt134.0-0.1810 11.5  11 
 WEIJ HHN GH    IAML      1321 39.19040370.0  0.26 BER opt     -0.12   11.5  11 
 KUKU HHZ GH   IP         1321 47.470              BER opt 98.0 0.0410 78.1 359 
 KUKU HHE GH   ISg        1321 56.600              BER opt 98.0 0.1010 78.1 359 
 KUKU HHN GH    IAML      1322 00.540 3706.0  0.16 BER opt     -0.27   78.1 359 
 AKOS HHZ GH   IP         1321 51.920              BER opt 96.0 0.7310  101  27 
 AKOS HHN GH   ISg        1322 02.960              BER opt 96.0 0.0610  101  27 
 AKOS HHN GH    IAML      1322 08.450 1955.0  0.12 BER opt     -0.38    101  27 
 KLEF HHZ GH   IP         1321 59.140              BER opt 76.0-0.2910  153  35 
 KLEF HHE GH   ISg        1322 16.900              BER opt 94.0-0.2810  153  35 
 KLEF HHN GH    IAML      1322 18.730 3633.0  0.10 BER opt      0.19    153  35 
 MRON HHZ GH   IP         1322 00.630              BER opt 76.0-0.2210  162 312 
 MRON HHN GH   ISg        1322 19.710              BER opt 94.0 0.0410  162 312 
 MRON HHN GH    IAML      1322 21.310 7909.0  0.18 BER opt      0.57    162 312 
                                                                                
 2013 1014 1302 17.8 L   5.457  -0.549 13.7  BER  4 .10 3.5LBER                1
 GAP=260   BER 0.360       3.1     1.2  2.6  0.8267E+00  0.1440E+01  0.6621E-01E
 2013-10-14-1300-42S.NSN___015                                                 6
 OLDACT:REG 21-09-15 21:20 OP:opt  STATUS:               ID:20131014130042     3
 OLDACT:UP  21-09-15 21:23 OP:opt  STATUS:               ID:20131014130042     3
 OLDACT:UP  21-12-03 13:26 OP:opt  STATUS:               ID:20131014130042     3
 OLDACT:UP  21-12-12 11:31 OP:opt  STATUS:               ID:20131014130042     3
 ACTION:UP  21-12-24 13:06 OP:opt  STATUS:               ID:20131014130042     I
 OLDACT:UP  21-12-23 17:45 OP:opt  STATUS:               ID:20131014130042     3
 STAT COM NTLO IPHASE   W HHMM SS.SSS   PAR1  PAR2 AGA OPE  AIN  RES W  DIS CAZ7
 WEIJ HHZ GH   IP         1302 22.930              BER opt116.0-0.0310 27.9  59 
 WEIJ HHN GH   ISg        1302 26.570              BER opt116.0 0.0210 27.9  59 
 WEIJ HHE GH    IAML      1302 27.140 2938.5  0.12 BER opt     -0.38   27.9  59 
 KUKU HHZ GH   IP         1302 31.670              BER opt 76.0-0.0710 83.7  14 
 KUKU HHN GH    IAML      1302 33.380 1443.5  0.12 BER opt     -0.10   83.7  14 
 AKOS HHN GH    IAML      1302 52.370 1873.0  0.24 BER opt      0.22    115  36 
 MRON HHZ GH   IP         1302 42.230              BER opt 76.0 0.1710  149 319 
 MRON HHN GH   ISg        1302 59.440              BER opt 95.0-0.0810  149 319 
 MRON HHE GH    IAML      1303 04.640  552.0  0.12 BER opt     -0.12    149 319 
 KLEF HHZ GH   IP         1302 45.090              BER opt 76.0-0.1010  168  40 
 KLEF HHN GH   ISg        1303 05.100              BER opt 94.0 0.0910  168  40 
 KLEF HHE GH    IAML      1303 07.400 1451.0  0.22 BER opt      0.39    168  40 
                                                                                
 2013 1016 1024 06.9 L   5.782  -0.390 1.30  BER  4 .30 2.6LBER                1
 GAP=139   BER 0.730       2.3     2.1259.5 -0.4729E+00  0.1270E+03 -0.4693E+03E
 2013-10-16-1022-11S.NSN___015                                                 6
 OLDACT:REG 21-08-27 21:36 OP:opt  STATUS:               ID:20131016102210     3
 OLDACT:UP  21-08-29 21:26 OP:opt  STATUS:               ID:20131016102210     3
 OLDACT:UP  21-08-29 21:28 OP:opt  STATUS:               ID:20131016102210     3
 OLDACT:UP  21-12-03 13:26 OP:opt  STATUS:               ID:20131016102210     3
 OLDACT:UP  21-12-12 11:31 OP:opt  STATUS:               ID:20131016102210     3
 ACTION:UP  21-12-24 13:06 OP:opt  STATUS:               ID:20131016102210     I
 OLDACT:UP  21-12-23 17:45 OP:opt  STATUS:               ID:20131016102210     3
 STAT COM NTLO IPHASE   W HHMM SS.SSS   PAR1  PAR2 AGA OPE  AIN  RES W  DIS CAZ7
 WEIJ HHZ GH   IP         1024 10.370              BER opt 91.0-0.2310 22.3 164 
 WEIJ HHN GH   ISg        1024 13.350              BER opt 91.0 0.1610 22.3 164 
 WEIJ HHE GH    IAML      1024 13.670  812.5  0.50 BER opt     -0.24   22.3 164 
 KUKU HHZ GH   IP         1024 13.990              BER opt 90.0-0.4210 45.5   3 
 KUKU HHN GH   ISg        1024 19.590              BER opt 90.0-0.0710 45.5   3 
 KUKU HHN GH    IAML      1024 27.330  990.0  0.12 BER opt      0.23   45.5   3 
 KLEF HHZ GH   IP         1024 28.080              BER opt 90.0-0.2010  130  45 
 KLEF HHN GH   ISg        1024 43.660              BER opt 90.0 0.4110  130  45 
 MRON HHZ GH   IP         1024 29.930              BER opt 90.0 0.2910  138 303 
 MRON HHN GH   ISg        1024 45.630              BER opt 90.0 0.0710  138 303 
                                                                                
 2013 1026 1828 47.9 L   5.778  -0.443 13.4  BER  3 .00 3.0LBER                1
 GAP=220   BER 0.310       1.4     5.6  3.3  0.5714E+01 -0.9768E+01 -0.3138E+01E
 2013-10-26-1827-26S.NSN___015                                                 6
 OLDACT:REG 21-09-15 21:27 OP:opt  STATUS:               ID:20131026182725     3
 OLDACT:UP  21-09-15 21:29 OP:opt  STATUS:               ID:20131026182725     3
 OLDACT:UP  21-12-03 13:26 OP:opt  STATUS:               ID:20131026182725     3
 OLDACT:UP  21-12-12 11:32 OP:opt  STATUS:               ID:20131026182725     3
 ACTION:UP  21-12-24 13:06 OP:opt  STATUS:               ID:20131026182725     I
 OLDACT:UP  21-12-23 17:45 OP:opt  STATUS:               ID:20131026182725     3
 STAT COM NTLO IPHASE   W HHMM SS.SSS   PAR1  PAR2 AGA OPE  AIN  RES W  DIS CAZ7
 WEIJ HHZ GH   IP         1828 52.510              BER opt119.0 0.0210 24.2 150 
 WEIJ HHN GH   ISg        1828 55.680              BER opt119.0-0.0110 24.2 150 
 WEIJ HHN GH    IAML      1828 56.820 2808.0  0.28 BER opt     -0.03   24.2 150 
 KUKU HHN GH   IP         1828 55.880              BER opt106.0-0.0210 46.6  10 
 KUKU HHE GH   ISg        1829 01.490              BER opt106.0 0.0110 46.6  10 
 KUKU HHE GH    IAML      1829 02.690 1749.5  0.12 BER opt      0.08   46.6  10 
 KLEF HHZ GH   IP         1829 09.930              BER opt 76.0-0.0010  135  47 
 KLEF HHN GH    IAML      1829 33.300  283.5  0.12 BER opt     -0.05    135  47 
                                                                                
 2013 1102 1512 52.9 L   5.944  -0.402 2.60  BER  4 .30 2.9LBER                1
 GAP=128   BER 0.700       1.4     1.8 42.6  0.5179E-01  0.1308E+02  0.2663E+01E
 2013-11-02-1510-57S.NSN___015                                                 6
 OLDACT:REG 21-08-27 21:33 OP:opt  STATUS:               ID:20131102151057     3
 OLDACT:UP  21-08-28 15:18 OP:opt  STATUS:               ID:20131102151057     3
 OLDACT:UP  21-08-29 21:51 OP:opt  STATUS:               ID:20131102151057     3
 OLDACT:UP  21-12-03 13:27 OP:opt  STATUS:               ID:20131102151057     3
 OLDACT:UP  21-12-12 11:32 OP:opt  STATUS:               ID:20131102151057     3
 ACTION:UP  21-12-24 13:06 OP:opt  STATUS:               ID:20131102151057     I
 OLDACT:UP  21-12-23 17:45 OP:opt  STATUS:               ID:20131102151057     3
 STAT COM NTLO IPHASE   W HHMM SS.SSS   PAR1  PAR2 AGA OPE  AIN  RES W  DIS CAZ7
 KUKU HHZ GH   IP         1512 57.250              BER opt 94.0-0.2410 27.7   8 
 KUKU HHN GH   ISg        1513 00.570              BER opt 94.0-0.1410 27.7   8 
 KUKU HHN GH    IAML      1513 09.460 2232.5  0.16 BER opt     -0.02   27.7   8 
 WEIJ HHZ GH   IP         1512 59.160              BER opt 93.0-0.3610 40.1 169 
 WEIJ HHN GH   ISg        1513 04.410              BER opt 93.0 0.2510 40.1 169 
 WEIJ HHN GH    IAML      1513 05.330  685.0  0.14 BER opt     -0.33   40.1 169 
 KLEF HHZ GH   IP         1513 12.300              BER opt 91.0-0.1710  119  52 
 KLEF HHN GH    IAML      1513 13.840  541.5  0.10 BER opt      0.24    119  52 
 KLEF HHN GH   ISg        1513 26.590              BER opt 91.0 0.4110  119  52 
 MRON HHN GH   IP         1513 13.990              BER opt 91.0 0.0310  128 297 
 MRON HHE GH   ISg        1513 28.920              BER opt 91.0 0.2110  128 297 
 MRON HHE GH    IAML      1513 32.390  353.0  0.16 BER opt      0.11    128 297 
                                                                                
 2013 1105 1814 47.4 L   5.463  -0.519 16.6  BER  4 .20 3.3LBER                1
 GAP=262   BER 0.680       6.5     2.3  8.4  0.1985E+01  0.1351E+01 -0.2048E+02E
 2013-11-05-1812-52S.NSN___015                                                 6
 OLDACT:REG 21-08-27 21:32 OP:opt  STATUS:               ID:20131105181252     3
 OLDACT:UP  21-08-28 15:00 OP:opt  STATUS:               ID:20131105181252     3
 OLDACT:UP  21-08-28 15:00 OP:opt  STATUS:               ID:20131105181252     3
 OLDACT:UP  21-08-29 22:06 OP:opt  STATUS:               ID:20131105181252     3
 OLDACT:UP  21-12-03 13:27 OP:opt  STATUS:               ID:20131105181252     3
 OLDACT:UP  21-12-12 11:33 OP:opt  STATUS:               ID:20131105181252     3
 ACTION:UP  21-12-24 13:06 OP:opt  STATUS:               ID:20131105181252     I
 OLDACT:UP  21-12-23 17:46 OP:opt  STATUS:               ID:20131105181252     3
 STAT COM NTLO IPHASE   W HHMM SS.SSS   PAR1  PAR2 AGA OPE  AIN  RES W  DIS CAZ7
 WEIJ HHZ GH   IP         1814 52.310              BER opt122.0 0.0510 24.8  56 
 WEIJ HHN GH    IAML      1814 55.330 3827.5  0.24 BER opt     -0.12   24.8  56 
 KUKU HHZ GH   IP         1815 00.540              BER opt 95.0-0.5110 82.4  12 
 KUKU HHN GH    IAML      1815 13.360  863.0  0.12 BER opt     -0.17   82.4  12 
 MRON HHZ GH   IP         1815 12.060              BER opt 92.0 0.2210  150 318 
 MRON HHE GH   ISg        1815 29.000              BER opt 92.0 0.0210  150 318 
 MRON HHN GH    IAML      1815 29.750  349.5  0.16 BER opt     -0.15    150 318 
 KLEF HHZ GH   IP         1815 14.220              BER opt 76.0 0.0010  166  40 
 KLEF HHN GH   ISg        1815 33.370              BER opt 91.0 0.2210  166  40 
 KLEF HHN GH    IAML      1815 35.470 1207.5  0.50 BER opt      0.46    166  40 
                                                                                
 2013 1109 1403 25.7 L   6.173  -0.074 7.10  BER  3 .10 2.5LBER                1
 GAP=224   BER 0.340       6.9     2.5  6.3 -0.1624E+02 -0.6682E+01  0.1932E+02E
 2013-11-09-1401-31S.NSN___015                                                 6
 OLDACT:REG 21-09-15 21:31 OP:opt  STATUS:               ID:20131109140131     3
 OLDACT:UP  21-09-15 21:33 OP:opt  STATUS:               ID:20131109140131     3
 OLDACT:UP  21-12-03 13:27 OP:opt  STATUS:               ID:20131109140131     3
 OLDACT:UP  21-12-12 11:33 OP:opt  STATUS:               ID:20131109140131     3
 OLDACT:UP  21-12-23 17:46 OP:opt  STATUS:               ID:20131109140131     3
 ACTION:UP  21-12-24 13:07 OP:opt  STATUS:               ID:20131109140131     I
 OLDACT:UP  21-12-24 13:06 OP:opt  STATUS:               ID:20131109140131     3
 STAT COM NTLO IPHASE   W HHMM SS.SSS   PAR1  PAR2 AGA OPE  AIN  RES W  DIS CAZ7
 AKOS HHZ GH   IP         1403 29.420              BER opt108.0 0.0210 20.9  49 
 AKOS HHN GH   ISg        1403 31.940              BER opt108.0-0.0110 20.9  49 
 AKOS HHE GH    IAML      1403 32.340 1058.5  0.26 BER opt     -0.03   20.9  49 
 KUKU HHZ GH   IP         1403 31.140              BER opt102.0-0.1110 32.7 274 
 KUKU HHN GH   ISg        1403 35.180              BER opt102.0 0.0710 32.7 274 
 KUKU HHN GH    IAML      1403 36.140  486.5  0.38 BER opt     -0.15   32.7 274 
 KLEF HHZ GH   IP         1403 38.220              BER opt 95.0 0.0910 75.0  49 
 KLEF HHN GH   ISg        1403 46.750              BER opt 95.0-0.0510 75.0  49 
 KLEF HHE GH    IAML      1403 50.440  340.5  0.20 BER opt      0.17   75.0  49 
                                                                                
 2013 1118 1852 00.5 L   5.686  -0.444 2.50  BER  412.2 2.7LBER                1
 GAP=177   BER 31.13     147.1    93.0999.9 -0.1527E+04  0.7958E+05 -0.2669E+06E
 2013-11-18-1850-00S.NSN___015                                                 6
 OLDACT:REG 21-08-27 21:29 OP:opt  STATUS:               ID:20131118185000     3
 OLDACT:UP  21-08-28 15:14 OP:opt  STATUS:               ID:20131118185000     3
 OLDACT:UP  21-08-29 22:10 OP:opt  STATUS:               ID:20131118185000     3
 OLDACT:UP  21-12-03 13:27 OP:opt  STATUS:               ID:20131118185000     3
 OLDACT:UP  21-12-12 11:33 OP:opt  STATUS:               ID:20131118185000     3
 ACTION:UP  21-12-24 13:07 OP:opt  STATUS:               ID:20131118185000     I
 OLDACT:UP  21-12-23 17:46 OP:opt  STATUS:               ID:20131118185000     3
 STAT COM NTLO IPHASE   W HHMM SS.SSS   PAR1  PAR2 AGA OPE  AIN  RES W  DIS CAZ7
 WEIJ HHZ GH   IP         1852 00.010              BER opt 97.0-3.2410 16.3 131 
 WEIJ HHN GH   ISg        1852 03.510              BER opt 97.0-1.6610 16.3 131 
 WEIJ HHN GH    IAML      1852 03.630  899.5  0.32 BER opt     -0.41   16.3 131 
 KUKU HHN GH   ISg        1852 18.850              BER opt 92.0 2.4610 56.6   8 
 KUKU HHN GH    IAML      1852 21.530  314.0  0.44 BER opt     -0.20   56.6   8 
 MRON HHZ GH   IP         1852 19.910              BER opt 91.0-3.5510  140 308 
 MRON HHE GH   ISg        1852 37.100              BER opt 91.0-2.4310  140 308 
 MRON HHN GH    IAML      1852 40.670  267.0  0.30 BER opt      0.32    140 308 
 KLEF HHN GH   ISg        1852 22.270              BER opt 91.0-17.910  142  44 
 KLEF HHN GH    IAML      1852 43.310  234.0  0.14 BER opt      0.28    142  44 
 KLEF HHZ GH   IP         1852 50.150              BER opt 91.0 26.310  142  44 
                                                                                
 2013 1129 1909 48.4 L   5.518  -0.524 11.7  BER  4 .20 3.5LBER                1
 GAP=246   BER 0.580       3.1     1.8  4.6  0.1050E+01  0.4222E+01 -0.1246E+01E
 2013-11-29-1908-01S.NSN___015                                                 6
 OLDACT:REG 21-08-27 21:27 OP:opt  STATUS:               ID:20131129190800     3
 OLDACT:UP  21-08-28 15:16 OP:opt  STATUS:               ID:20131129190800     3
 OLDACT:UP  21-08-29 22:18 OP:opt  STATUS:               ID:20131129190800     3
 OLDACT:UP  21-08-29 22:22 OP:opt  STATUS:               ID:20131129190800     3
 OLDACT:UP  21-12-03 13:27 OP:opt  STATUS:               ID:20131129190800     3
 OLDACT:UP  21-12-12 11:34 OP:opt  STATUS:               ID:20131129190800     3
 OLDACT:UP  21-12-12 11:34 OP:opt  STATUS:               ID:20131129190800     3
 ACTION:UP  21-12-24 13:07 OP:opt  STATUS:               ID:20131129190800     I
 OLDACT:UP  21-12-23 17:46 OP:opt  STATUS:               ID:20131129190800     3
 STAT COM NTLO IPHASE   W HHMM SS.SSS   PAR1  PAR2 AGA OPE  AIN  RES W  DIS CAZ7
 WEIJ HHZ GH   IP         1909 52.680              BER opt117.0 0.1010 22.5  70 
 WEIJ HHN GH    IAML      1909 53.080 2324.0  0.26 BER opt     -0.62   22.5  70 
 WEIJ HHN GH   ISg        1909 55.480              BER opt117.0-0.0410 22.5  70 
 KUKU HHZ GH   IP         1910 00.810              BER opt 98.0-0.3210 76.6  13 
 KUKU HHN GH   ISg        1910 09.910              BER opt 98.0-0.1310 76.6  13 
 KUKU HHN GH    IAML      1910 14.000 1130.5  0.20 BER opt     -0.29   76.6  13 
 AKOS HHN GH    IAML      1910 08.330 1659.0  0.10 BER opt      0.10    108  37 
 MRON HHZ GH   IP         1910 12.350              BER opt 76.0 0.1510  146 316 
 MRON HHN GH   ISg        1910 29.240              BER opt 94.0 0.0710  146 316 
 MRON HHN GH    IAML      1910 33.480 2004.5  0.10 BER opt      0.39    146 316 
 KLEF HHZ GH   IP         1910 14.550              BER opt 76.0-0.1910  162  41 
 KLEF HHN GH   ISg        1910 33.980              BER opt 94.0 0.3610  162  41 
 KLEF HHN GH    IAML      1910 35.950 1879.0  0.10 BER opt      0.44    162  41 
                                                                                
