 2013 0318 2105 53.9 L   5.570  -0.251 10.6  BER  5 .10 3.2LBER                1
 GAP=242   BER 0.320       2.1     1.5  4.0 -0.1165E-01 -0.3853E+01 -0.5226E+01E
 2013-03-18-2103-56S.NSN___018                                                 6
 OLDACT:REG 21-08-27 22:27 OP:opt  STATUS:               ID:20130318210356     3
 OLDACT:UP  21-08-28 13:47 OP:opt  STATUS:               ID:20130318210356     3
 OLDACT:UP  21-08-29 18:38 OP:opt  STATUS:               ID:20130318210356     3
 OLDACT:UP  21-08-29 18:39 OP:opt  STATUS:               ID:20130318210356     3
 OLDACT:UP  21-09-13 22:17 OP:opt  STATUS:               ID:20130318210356     3
 OLDACT:UP  21-09-13 22:17 OP:opt  STATUS:               ID:20130318210356     3
 OLDACT:UP  21-12-03 13:17 OP:opt  STATUS:               ID:20130318210356     3
 OLDACT:UP  21-12-12 11:16 OP:opt  STATUS:               ID:20130318210356     3
 ACTION:UP  21-12-24 13:00 OP:opt  STATUS:               ID:20130318210356     I
 OLDACT:UP  21-12-23 17:38 OP:opt  STATUS:               ID:20130318210356     3
 STAT COM NTLO IPHASE   W HHMM SS.SSS   PAR1  PAR2 AGA OPE  AIN  RES W  DIS CAZ7
 WEIJ HHZ GH   IP         2105 56.260              BER opt139.0-0.0310 9.37 283 
 WEIJ HHN GH    IAML      2105 57.93012884.5  0.10 BER opt      0.16   9.37 283 
 WEIJ HHE GH    IAML      2105 57.97010412.5  0.20 BER opt      0.07   9.37 283 
 WEIJ HHN GH   ISg        2105 57.970              BER opt139.0 0.0310 9.37 283 
 SHAI HHZ GH   IP         2106 02.890              BER opt101.0-0.0010 53.4  41 
 SHAI HHN GH   ISg        2106 09.150              BER opt101.0-0.0110 53.4  41 
 SHAI HHT GH   ISg        2106 09.160              BER opt101.0 0.0010 53.4  41 
 SHAI HHN GH    IAML      2106 09.680 1447.0  0.12 BER opt     -0.06   53.4  41 
 KUKU HHE GH   ISg        2106 13.770              BER opt 98.0 0.0310 70.0 349 
 KUKU HHN GH    IAML      2106 20.140  516.5  0.16 BER opt     -0.35   70.0 349 
 AKOS HHE GH   ISg        2106 18.530              BER opt 97.0-0.1510 87.9  24 
 AKOS HHN GH    IAML      2106 19.550  751.0  0.10 BER opt     -0.05   87.9  24 
 KLEF HHN GH   ISg        2106 32.870              BER opt 94.0 0.1410  139  34 
 KLEF HHN GH    IAML      2106 35.080  707.5  0.20 BER opt      0.24    139  34 
                                                                                
 2013 0330 1743 40.2 L   5.404  -0.507 14.1  BER  4 .40 3.2LBER                1
 GAP=323   BER  1.16       8.0     9.9 12.4  0.1320E+01  0.5872E+02 -0.1069E+02E
 2013-03-30-1741-54S.NSN___018                                                 6
 OLDACT:REG 21-08-27 22:25 OP:opt  STATUS:               ID:20130330174154     3
 OLDACT:UP  21-08-28 13:48 OP:opt  STATUS:               ID:20130330174154     3
 OLDACT:UP  21-08-28 13:48 OP:opt  STATUS:               ID:20130330174154     3
 OLDACT:UP  21-08-29 18:51 OP:opt  STATUS:               ID:20130330174154     3
 OLDACT:UP  21-08-29 18:53 OP:opt  STATUS:               ID:20130330174154     3
 OLDACT:UP  21-12-03 13:17 OP:opt  STATUS:               ID:20130330174154     3
 OLDACT:UP  21-12-12 11:17 OP:opt  STATUS:               ID:20130330174154     3
 ACTION:UP  21-12-24 13:00 OP:opt  STATUS:               ID:20130330174154     I
 OLDACT:UP  21-12-23 17:38 OP:opt  STATUS:               ID:20130330174154     3
 STAT COM NTLO IPHASE   W HHMM SS.SSS   PAR1  PAR2 AGA OPE  AIN  RES W  DIS CAZ7
 WEIJ HHZ GH   IP         1743 45.860              BER opt113.0 0.5010 28.1  43 
 WEIJ HHN GH   ISg        1743 48.560              BER opt113.0-0.4210 28.1  43 
 WEIJ HHN GH    IAML      1743 48.910 1912.0  0.36 BER opt     -0.28   28.1  43 
 SHAI HHZ GH   IP         1743 54.780              BER opt 90.0 0.2910 86.4  47 
 SHAI HHN GH    IAML      1744 10.900  669.0  0.20 BER opt     -0.13   86.4  47 
 KUKU HHZ GH   IP         1743 54.060              BER opt 90.0-0.7810 88.5  10 
 KUKU HHZ GH   ISg        1744 05.590              BER opt 90.0 0.4910 88.5  10 
 KUKU HHN GH    IAML      1744 09.200  567.5  0.12 BER opt     -0.19   88.5  10 
 AKOS HHE GH    IAML      1744 01.290  496.0  0.22 BER opt     -0.06    118  33 
 MRON HHE GH    IAML      1744 26.150  432.0  0.12 BER opt      0.09    156 319 
 KLEF HHZ GH   IP         1744 07.780              BER opt 90.0-0.0010  170  38 
 KLEF HHN GH    IAML      1744 08.180 1172.0  0.10 BER opt      0.59    170  38 
 KLEF HHN GH   ISg        1744 27.020              BER opt 90.0-0.0910  170  38 
                                                                                
 2013 0503 0331 46.2 L   5.558  -0.290 13.1  BER  4 .20 2.6LBER                1
 GAP=262   BER 0.690       4.0     2.6  5.1  0.1248E+01 -0.6590E+01 -0.1359E+02E
 2013-05-03-0330-13S.NSN___018                                                 6
 OLDACT:REG 21-08-27 22:24 OP:opt  STATUS:               ID:20130503033013     3
 OLDACT:UP  21-08-28 14:04 OP:opt  STATUS:               ID:20130503033013     3
 OLDACT:UP  21-08-28 14:04 OP:opt  STATUS:               ID:20130503033013     3
 OLDACT:UP  21-08-28 14:05 OP:opt  STATUS:               ID:20130503033013     3
 OLDACT:UP  21-08-28 14:05 OP:opt  STATUS:               ID:20130503033013     3
 OLDACT:UP  21-08-29 18:55 OP:opt  STATUS:               ID:20130503033013     3
 OLDACT:UP  21-08-29 18:56 OP:opt  STATUS:               ID:20130503033013     3
 OLDACT:UP  21-08-29 18:57 OP:opt  STATUS:               ID:20130503033013     3
 OLDACT:UP  21-12-03 13:17 OP:opt  STATUS:               ID:20130503033013     3
 OLDACT:UP  21-12-12 11:17 OP:opt  STATUS:               ID:20130503033013     3
 ACTION:UP  21-12-24 13:01 OP:opt  STATUS:               ID:20130503033013     I
 OLDACT:UP  21-12-23 17:39 OP:opt  STATUS:               ID:20130503033013     3
 STAT COM NTLO IPHASE   W HHMM SS.SSS   PAR1  PAR2 AGA OPE  AIN  RES W  DIS CAZ7
 WEIJ HHZ GH   IP         0331 48.680              BER opt156.0 0.0610 5.86 305 
 WEIJ HHE GH   ISg        0331 50.350              BER opt156.0 0.0610 5.86 305 
 WEIJ HHN GH    IAML      0331 50.800 3327.5  0.14 BER opt      0.17   5.86 305 
 SHAI HHE GH   IP         0331 55.630              BER opt103.0-0.2510 57.3  43 
 SHAI HHT GH   ISg        0332 02.430              BER opt103.0-0.2110 57.3  43 
 SHAI HHN GH   ISg        0332 02.490              BER opt103.0-0.1510 57.3  43 
 SHAI HHN GH    IAML      0332 02.530  268.0  0.18 BER opt     -0.16   57.3  43 
 KUKU HHZ GH   IP         0331 58.140              BER opt100.0 0.1010 70.6 353 
 KUKU HHE GH   ISg        0332 06.190              BER opt100.0-0.1210 70.6 353 
 KUKU HHT GH   ISg        0332 06.200              BER opt100.0-0.1110 70.6 353 
 KUKU HHN GH    IAML      0332 07.470  114.0  0.18 BER opt     -0.41   70.6 353 
 KLEF HHN GH   ISg        0332 26.670              BER opt 95.0 0.6210  142  35 
 KLEF HHN GH    IAML      0332 30.640  235.5  0.10 BER opt      0.37    142  35 
                                                                                
 2013 0508 1806 58.2 L   5.531  -0.538 8.60  BER  6 .30 3.2LBER                1
 GAP=242   BER 0.720       5.2     2.2  7.1  0.3669E+01  0.6913E+01 -0.6266E+01E
 2013-05-08-1806-35S.NSN___018                                                 6
 OLDACT:REG 21-09-15 19:37 OP:opt  STATUS:               ID:20130508180635     3
 OLDACT:UP  21-09-15 19:38 OP:opt  STATUS:               ID:20130508180635     3
 OLDACT:UP  21-12-03 13:18 OP:opt  STATUS:               ID:20130508180635     3
 OLDACT:UP  21-12-12 11:17 OP:opt  STATUS:               ID:20130508180635     3
 ACTION:UP  21-12-24 13:01 OP:opt  STATUS:               ID:20130508180635     I
 OLDACT:UP  21-12-23 17:39 OP:opt  STATUS:               ID:20130508180635     3
 STAT COM NTLO IPHASE   W HHMM SS.SSS   PAR1  PAR2 AGA OPE  AIN  RES W  DIS CAZ7
 WEIJ HHZ GH   IP         1807 02.330              BER    110.0 0.0210 23.5  74 
 WEIJ HHN GH   ISg        1807 05.220              BER    110.0 0.0110 23.5  74 
 WEIJ HHE GH    IAML      1807 06.370 2053.5  0.30 BER         -0.37   23.5  74 
 KUKU HHZ GH   IP         1807 10.550              BER     96.0-0.1210 75.4  14 
 KUKU HHN GH    IAML      1807 23.450 1017.5  0.12 BER         -0.04   75.4  14 
 SHAI HHZ GH   IP         1807 11.300              BER     96.0-0.1410 80.2  56 
 SHAI HHN GH    IAML      1807 23.470  865.5  0.20 BER         -0.07   80.2  56 
 AKOS HHZ GH   IP         1807 16.220              BER     94.0 0.2210  108  38 
 AKOS HHN GH    IAML      1807 17.900  857.5  0.10 BER          0.12    108  38 
 MRON HHZ GH   IP         1807 22.230              BER     76.0 0.4510  143 316 
 MRON HHN GH   ISg        1807 38.070              BER     93.0-0.2410  143 316 
 MRON HHE GH    IAML      1807 42.630  436.5  0.14 BER          0.02    143 316 
 KLEF HHZ GH   IP         1807 24.190              BER     76.0-0.4510  161  42 
 KLEF HHN GH   ISg        1807 43.570              BER     93.0 0.2510  161  42 
 KLEF HHE GH    IAML      1807 45.360  747.0  0.50 BER          0.35    161  42 
                                                                                
 2013 0509 1209 51.2 L   6.565  -0.997 5.50  BER  3 .00 2.8LBER                1
 GAP=223   BER 0.340      26.1     7.1117.2  0.1697E+03 -0.8120E+03 -0.2619E+04E
 2013-05-09-1208-00S.NSN___018                                                 6
 OLDACT:REG 21-09-15 19:57 OP:opt  STATUS:               ID:20130509120759     3
 OLDACT:UP  21-09-15 20:02 OP:opt  STATUS:               ID:20130509120759     3
 OLDACT:UP  21-12-03 13:18 OP:opt  STATUS:               ID:20130509120759     3
 OLDACT:UP  21-12-12 11:18 OP:opt  STATUS:               ID:20130509120759     3
 ACTION:UP  21-12-24 13:01 OP:opt  STATUS:               ID:20130509120759     I
 OLDACT:UP  21-12-23 17:39 OP:opt  STATUS:               ID:20130509120759     3
 STAT COM NTLO IPHASE   W HHMM SS.SSS   PAR1  PAR2 AGA OPE  AIN  RES W  DIS CAZ7
 MRON HHZ GH   IP         1209 59.470              BER opt 96.0-0.0010 49.9 257 
 MRON HHN GH   ISg        1210 05.260              BER opt 96.0-0.0110 49.9 257 
 MRON HHE GH    IAML      1210 06.230  535.0  0.46 BER opt     -0.15   49.9 257 
 KUKU HHZ GH   IP         1210 04.520      D       BER opt 93.0-0.0010 80.8 121 
 KUKU HHE GH    IAML      1210 19.480  546.0  0.12 BER opt      0.15   80.8 121 
 SHAI HHE GH   IP         1210 13.610              BER opt 92.0 0.0110  136 121 
                                                                                
 2013 0515 1657 40.8 L   5.430  -0.551 11.9  BER  6 .10 3.3LBER                1
 GAP=265   BER 0.450       3.9     1.4  3.7  0.1764E+01  0.2370E+01  0.3452E+01E
 2013-05-15-1657-31S.NSN___017                                                 6
 OLDACT:REG 21-09-15 20:05 OP:opt  STATUS:               ID:20130515165731     3
 OLDACT:UP  21-09-15 20:09 OP:opt  STATUS:               ID:20130515165731     3
 OLDACT:UP  21-12-03 13:18 OP:opt  STATUS:               ID:20130515165731     3
 OLDACT:UP  21-12-12 11:18 OP:opt  STATUS:               ID:20130515165731     3
 ACTION:UP  21-12-24 13:01 OP:opt  STATUS:               ID:20130515165731     I
 OLDACT:UP  21-12-23 17:39 OP:opt  STATUS:               ID:20130515165731     3
 STAT COM NTLO IPHASE   W HHMM SS.SSS   PAR1  PAR2 AGA OPE  AIN  RES W  DIS CAZ7
 WEIJ HHZ GH   IP         1657 46.220              BER    112.0 0.0910 29.8  54 
 WEIJ HHN GH   ISg        1657 49.830              BER    112.0-0.0010 29.8  54 
 WEIJ HHN GH    IAML      1657 50.160 1823.0  0.18 BER         -0.36   29.8  54 
 KUKU HHZ GH   IP         1657 54.910              BER     98.0-0.3010 86.7  13 
 KUKU HHN GH    IAML      1658 10.640  506.5  0.18 BER opt     -0.32   86.7  13 
 SHAI HHZ GH   IP         1657 55.460              BER opt 97.0 0.0210 88.1  50 
 SHAI HHN GH    IAML      1658 07.600  840.0  0.22 BER opt     -0.09   88.1  50 
 AKOS HHZ GH   IP         1658 00.450              BER     76.0 0.2010  118  36 
 MRON HHN GH   IP         1658 05.510              BER opt 76.0 0.0610  151 319 
 MRON HHN GH   ISg        1658 23.100              BER opt 94.0 0.0510  151 319 
 KLEF HHZ GH   IP         1658 08.450              BER     76.0-0.2010  171  40 
 KLEF HHN GH   ISg        1658 28.740              BER     94.0 0.0910  171  40 
 KLEF HHE GH    IAML      1658 34.030 2007.0  0.14 BER          0.76    171  40 
                                                                                
 2013 0516 1913 34.2 L   5.422  -0.541 13.7  BER  3 .00 3.0LBER                1
 GAP=268   BER 0.310       4.0     2.2  3.3 -0.4632E+01  0.5053E+01 -0.4024E+01E
 2013-05-16-1911-59S.NSN___018_SEI                                             6
 OLDACT:REG 21-08-27 22:23 OP:opt  STATUS:               ID:20130516191158     3
 OLDACT:UP  21-08-28 14:07 OP:opt  STATUS:               ID:20130516191158     3
 OLDACT:UP  21-08-28 14:07 OP:opt  STATUS:               ID:20130516191158     3
 OLDACT:UP  21-12-03 13:18 OP:opt  STATUS:               ID:20130516191158     3
 OLDACT:UP  21-12-12 11:18 OP:opt  STATUS:               ID:20130516191158     3
 OLDACT:UP  21-12-23 17:40 OP:opt  STATUS:               ID:20130516191158     3
 ACTION:UP  21-12-24 13:02 OP:opt  STATUS:               ID:20130516191158     I
 OLDACT:UP  21-12-24 13:02 OP:opt  STATUS:               ID:20130516191158     3
 STAT COM NTLO IPHASE   W HHMM SS.SSS   PAR1  PAR2 AGA OPE  AIN  RES W  DIS CAZ7
 WEIJ HHZ GH   IP         1913 39.550              BER opt115.0 0.0310 29.5  51 
 WEIJ HHN GH   ISg        1913 43.250              BER opt115.0-0.0310 29.5  51 
 WEIJ HHN GH    IAML      1913 43.920  699.0  0.18 BER opt     -0.50   29.5  51 
 SHAI HHN GH    IAML      1914 05.950  375.0  0.20 BER opt     -0.17   87.8  50 
 MRON HHZ GH   IP         1913 58.930              BER opt 76.0-0.0010  152 319 
 MRON HHN GH    IAML      1913 59.530  158.0  0.80 BER opt     -0.17    152 319 
 KLEF HHZ GH   IP         1914 01.890              BER opt 76.0-0.0210  171  39 
 KLEF HHN GH   ISg        1914 22.030              BER opt 94.0 0.0210  171  39 
 KLEF HHN GH    IAML      1914 23.720  616.0  0.12 BER opt      0.51    171  39 
 KLEF HHE GH    IAML      1914 28.960  383.5  0.12 BER opt      0.31    171  39 
                                                                                
 2013 0518 1816 50.3 L   5.529  -0.527 8.90  BER  6 .20 3.2LBER                1
 GAP=243   BER 0.650       4.7     2.0  6.1  0.3034E+01  0.5324E+01 -0.4560E+01E
 2013-05-18-1814-54S.NSN___018                                                 6
 OLDACT:REG 21-08-29 19:45 OP:opt  STATUS:               ID:20130518181454     3
 OLDACT:UP  21-08-29 19:50 OP:opt  STATUS:               ID:20130518181454     3
 OLDACT:UP  21-12-03 13:18 OP:opt  STATUS:               ID:20130518181454     3
 OLDACT:UP  21-12-12 11:18 OP:opt  STATUS:               ID:20130518181454     3
 ACTION:UP  21-12-24 13:02 OP:opt  STATUS:               ID:20130518181454     I
 OLDACT:UP  21-12-23 17:40 OP:opt  STATUS:               ID:20130518181454     3
 STAT COM NTLO IPHASE   W HHMM SS.SSS   PAR1  PAR2 AGA OPE  AIN  RES W  DIS CAZ7
 WEIJ HHZ GH   IP         1816 54.370              BER opt112.0 0.1010 22.5  73 
 WEIJ HHE GH   ISg        1816 57.080              BER opt112.0 0.0210 22.5  73 
 WEIJ HHN GH    IAML      1816 57.620 2862.5  0.28 BER opt     -0.25   22.5  73 
 KUKU HHZ GH   IP         1817 02.580              BER opt 96.0-0.1810 75.4  13 
 KUKU HHN GH    IAML      1817 15.850  570.0  0.16 BER opt     -0.30   75.4  13 
 SHAI HHZ GH   EP         1817 03.370      C       BER opt 96.0-0.0410 79.4  55 
 SHAI HHZ GH   IP         1817 03.370      C       BER opt 96.0-0.0410 79.4  55 
 SHAI HHN GH    IAML      1817 21.710  781.0  0.20 BER opt     -0.13   79.4  55 
 AKOS HHZ GH   IP         1817 07.890              BER opt 94.0-0.1310  108  38 
 AKOS HHN GH    IAML      1817 10.140  755.0  0.10 BER opt      0.05    108  38 
 MRON HHZ GH   IP         1817 14.460              BER opt 76.0 0.4510  144 316 
 MRON HHE GH   ISg        1817 30.500              BER opt 93.0-0.1710  144 316 
 MRON HHN GH    IAML      1817 34.950  496.5  0.70 BER opt      0.08    144 316 
 KLEF HHZ GH   IP         1817 16.270              BER opt 76.0-0.3510  161  42 
 KLEF HHN GH   ISg        1817 35.600              BER opt 93.0 0.3510  161  42 
 KLEF HHN GH    IAML      1817 37.870 1204.0  0.12 BER opt      0.55    161  42 
                                                                                
 2013 0524 1721 26.7 L   6.857  -1.529 14.1  BER  3 .10 3.2LBER                1
 GAP=290   BER 0.380       5.8     3.0 13.6  0.5730E+01 -0.2387E+02 -0.7144E+02E
 2013-05-24-1721-20S.NSN___018_SEI                                             6
 OLDACT:REG 21-09-15 20:11 OP:opt  STATUS:               ID:20130524172119     3
 OLDACT:UP  21-09-15 20:14 OP:opt  STATUS:               ID:20130524172119     3
 OLDACT:UP  21-12-03 13:19 OP:opt  STATUS:               ID:20130524172119     3
 OLDACT:UP  21-12-12 11:18 OP:opt  STATUS:               ID:20130524172119     3
 OLDACT:UP  21-12-23 17:40 OP:opt  STATUS:               ID:20130524172119     3
 ACTION:UP  21-12-24 13:02 OP:opt  STATUS:               ID:20130524172119     I
 OLDACT:UP  21-12-24 13:02 OP:opt  STATUS:               ID:20130524172119     3
 STAT COM NTLO IPHASE   W HHMM SS.SSS   PAR1  PAR2 AGA OPE  AIN  RES W  DIS CAZ7
 MRON HHZ GH   IP         1721 34.470              BER opt100.0 0.1010 44.6 167 
 MRON HHN GH   ISg        1721 39.660              BER opt100.0-0.1110 44.6 167 
 MRON HHE GH    IAML      1721 42.090  476.5  0.10 BER opt     -0.69   44.6 167 
 AKOS HHE GH    IAML      1722 21.640  379.0  0.20 BER opt      0.15    187 109 
 WEIJ HHN GH    IAML      1722 26.660  353.5  0.20 BER opt      0.14    193 137 
 SHAI HHZ GH   IP         1721 59.500      C       BER opt 76.0 0.1110  203 120 
 SHAI HHE GH   ISg        1722 22.620              BER opt 90.0 0.0610  203 120 
 KLEF HHZ GH   IP         1722 01.720              BER opt 76.0-0.1510  219  97 
 KLEF HHN GH   ES         1722 26.500              BER opt 76.0-0.0110  219  97 
 KLEF HHN GH    IAML      1722 29.570  498.5  0.56 BER opt      0.40    219  97 
                                                                                
