 2012 1212 1745 13.8 L   5.515  -0.544 8.40  BER  5 .30 3.4LBER                1
 GAP=246   BER 0.790       4.0     2.3  8.0  0.1329E+01  0.9359E+01 -0.1120E+01E
 2012-12-12-1743-38S.NSN___018                                                 6
 OLDACT:REG 21-08-27 22:38 OP:opt  STATUS:               ID:20121212174337     3
 OLDACT:UP  21-08-28 13:24 OP:opt  STATUS:               ID:20121212174337     3
 OLDACT:UP  21-08-28 13:25 OP:opt  STATUS:               ID:20121212174337     3
 OLDACT:UP  21-08-29 15:22 OP:opt  STATUS:               ID:20121212174337     3
 OLDACT:UP  21-12-03 13:14 OP:opt  STATUS:               ID:20121212174337     3
 OLDACT:UP  21-12-12 11:13 OP:opt  STATUS:               ID:20121212174337     3
 OLDACT:UP  21-12-12 11:14 OP:opt  STATUS:               ID:20121212174337     3
 ACTION:UP  21-12-24 12:55 OP:opt  STATUS:               ID:20121212174337     I
 OLDACT:UP  21-12-23 17:36 OP:opt  STATUS:               ID:20121212174337     3
 STAT COM NTLO IPHASE   W HHMM SS.SSS   PAR1  PAR2 AGA OPE  AIN  RES W  DIS CAZ7
 WEIJ HHZ GH   IP         1745 18.210              BER opt109.0 0.0710 24.7  71 
 WEIJ HHE GH   ISg        1745 21.090              BER opt109.0-0.0710 24.7  71 
 WEIJ HHN GH    IAML      1745 21.380 2489.0  0.24 BER opt     -0.43   24.7  71 
 KUKU HHZ GH   IP         1745 26.370              BER opt 96.0-0.2510 77.4  15 
 KUKU HHN GH    IAML      1745 27.110 1324.5  0.14 BER opt     -0.08   77.4  15 
 KUKU HHE GH   ISg        1745 35.440              BER opt 96.0-0.1410 77.4  15 
 SHAI HHN GH    IAML      1745 41.810 1243.0  0.14 BER opt     -0.07   81.8  55 
 AKOS HHZ GH   IP         1745 32.040              BER opt 94.0 0.0910  110  38 
 AKOS HHN GH    IAML      1745 33.930 1386.0  0.10 BER opt      0.17    110  38 
 AKOS HHN GH   ISg        1745 45.240              BER opt 94.0 0.6010  110  38 
 MRON HHZ GH   IP         1745 37.960              BER opt 76.0 0.4110  144 317 
 MRON HHN GH    IAML      1745 40.320  371.5  0.20 BER opt     -0.21    144 317 
 MRON HHN GH   ESg        1745 54.010              BER opt 93.0-0.1610  144 317 
 KLEF HHZ GH   IP         1745 40.170              BER opt 76.0-0.4110  163  42 
 KLEF HHN GH    IAML      1745 40.510 1977.0  0.10 BER opt      0.61    163  42 
 KLEF HHN GH   ISg        1745 59.320              BER opt 93.0-0.1510  163  42 
                                                                                
 2012 1225 1351 17.9 L   5.615  -0.290 10.7  BER  5 .30 3.1LBER                1
 GAP=191   BER 0.730       3.2     1.9  3.8 -0.1720E+01  0.2441E+00 -0.8093E+01E
 2012-12-25-1349-44S.NSN___018                                                 6
 OLDACT:REG 21-08-27 22:37 OP:opt  STATUS:               ID:20121225134944     3
 OLDACT:UP  21-08-28 13:27 OP:opt  STATUS:               ID:20121225134944     3
 OLDACT:UP  21-08-29 15:37 OP:opt  STATUS:               ID:20121225134944     3
 OLDACT:UP  21-12-03 13:14 OP:opt  STATUS:               ID:20121225134944     3
 OLDACT:UP  21-12-12 11:13 OP:opt  STATUS:               ID:20121225134944     3
 OLDACT:UP  21-12-12 11:15 OP:opt  STATUS:               ID:20121225134944     3
 ACTION:UP  21-12-24 12:55 OP:opt  STATUS:               ID:20121225134944     I
 OLDACT:UP  21-12-23 17:36 OP:opt  STATUS:               ID:20121225134944     3
 STAT COM NTLO IPHASE   W HHMM SS.SSS   PAR1  PAR2 AGA OPE  AIN  RES W  DIS CAZ7
 WEIJ HHZ GH   IP         1351 20.040              BER opt152.0 0.0810 5.68 239 
 WEIJ HHN GH   ISg        1351 21.350              BER opt152.0-0.0210 5.68 239 
 WEIJ HHN GH    IAML      1351 21.54013499.0  0.20 BER opt      0.14   5.68 239 
 SHAI HHZ GH   IP         1351 26.600              BER opt101.0-0.1910 52.8  48 
 SHAI HHE GH   ISg        1351 32.840              BER opt101.0-0.1610 52.8  48 
 SHAI HHN GH    IAML      1351 32.870 1009.5  0.20 BER opt     -0.19   52.8  48 
 KUKU HHZ GH   IP         1351 28.890              BER opt 99.0 0.2210 64.4 352 
 KUKU HHE GH   ISg        1351 36.030              BER opt 99.0-0.1610 64.4 352 
 KUKU HHN GH    IAML      1351 36.610  775.0  0.14 BER opt     -0.19   64.4 352 
 KLEF HHZ GH   IP         1351 40.020              BER opt 76.0-0.3810  137  36 
 KLEF HHN GH   ISg        1351 56.790              BER opt 94.0 0.5210  137  36 
 KLEF HHN GH    IAML      1352 00.310  817.0  0.10 BER opt      0.33    137  36 
 MRON HHZ GH   IP         1351 44.070              BER opt 76.0 0.3110  158 307 
 MRON HHN GH   ISg        1352 01.940              BER opt 94.0-0.2110  158 307 
 MRON HHN GH    IAML      1352 03.310  256.0  0.18 BER opt     -0.07    158 307 
                                                                                
 2013 0106 1307 04.9 L   5.509  -0.327 13.9  BER  5 .20 3.2LBER                1
 GAP=268   BER 0.500       3.0     1.5  1.9 -0.1632E+00 -0.4981E+00 -0.4533E+00E
 2013-01-06-1306-45S.NSN___018                                                 6
 OLDACT:REG 21-09-13 21:58 OP:opt  STATUS:               ID:20130106130644     3
 OLDACT:REE 21-09-13 22:01 OP:opt  STATUS:               ID:20130106130644     3
 OLDACT:UP  21-09-13 22:02 OP:opt  STATUS:               ID:20130106130644     3
 OLDACT:UP  21-12-03 13:15 OP:opt  STATUS:               ID:20130106130644     3
 OLDACT:UP  21-12-12 11:15 OP:opt  STATUS:               ID:20130106130644     3
 ACTION:UP  21-12-24 12:59 OP:opt  STATUS:               ID:20130106130644     I
 OLDACT:UP  21-12-23 17:37 OP:opt  STATUS:               ID:20130106130644     3
 STAT COM NTLO IPHASE   W HHMM SS.SSS   PAR1  PAR2 AGA OPE  AIN  RES W  DIS CAZ7
 WEIJ HHZ GH   IP         1307 07.880              BER    148.0 0.2010 8.84 355 
 WEIJ HHE GH   ISg        1307 09.500              BER    148.0-0.1010 8.84 355 
 WEIJ HHN GH    IAML      1307 09.720 8377.5  0.16 BER         -0.03   8.84 355 
 SHAI HHZ GH   IP         1307 15.710              BER     76.0-0.0110 64.1  42 
 SHAI HHE GH   ISg        1307 23.210              BER    102.0-0.0510 64.1  42 
 SHAI HHN GH    IAML      1307 23.580 1118.0  0.20 BER         -0.14   64.1  42 
 KUKU HHZ GH   IP         1307 17.880              BER opt 76.0 0.3010 75.7 356 
 KUKU HHE GH   ISg        1307 26.560              BER opt100.0 0.0910 75.7 356 
 KUKU HHN GH    IAML      1307 27.540  773.5  0.10 BER opt     -0.20   75.7 356 
 KLEF HHZ GH   IP         1307 28.930              BER     76.0-0.2610  149  35 
 KLEF HHN GH   ISg        1307 46.700              BER opt 95.0 0.0110  149  35 
 KLEF HHN GH    IAML      1307 51.640  710.5  0.10 BER opt      0.22    149  35 
 MRON HHE GH   ISg        1307 50.200              BER     95.0-0.1810  162 311 
 MRON HHN GH    IAML      1307 52.520  532.5  0.16 BER          0.16    162 311 
                                                                                
 2013 0111 1631 45.1 L   5.517  -0.316 15.0  BER  6 .20 3.2LBER                1
 GAP=268   BER 0.640       3.2     1.7  1.9 -0.1425E+01 -0.1508E+00 -0.1893E+01E
 2013-01-11-1629-48S.NSN___018                                                 6
 OLDACT:REG 21-08-27 22:34 OP:opt  STATUS:               ID:20130111162947     3
 OLDACT:UP  21-08-28 13:32 OP:opt  STATUS:               ID:20130111162947     3
 OLDACT:REE 21-08-29 15:41 OP:opt  STATUS:               ID:20130111162947     3
 OLDACT:UP  21-08-29 17:27 OP:opt  STATUS:               ID:20130111162947     3
 OLDACT:UP  21-12-03 13:15 OP:opt  STATUS:               ID:20130111162947     3
 OLDACT:UP  21-12-12 11:15 OP:opt  STATUS:               ID:20130111162947     3
 ACTION:UP  21-12-24 12:59 OP:opt  STATUS:               ID:20130111162947     I
 OLDACT:UP  21-12-23 17:37 OP:opt  STATUS:               ID:20130111162947     3
 STAT COM NTLO IPHASE   W HHMM SS.SSS   PAR1  PAR2 AGA OPE  AIN  RES W  DIS CAZ7
 WEIJ HHZ GH   IP         1631 47.980              BER opt151.0 0.0810 8.16 346 
 WEIJ HHE GH   ISg        1631 49.530              BER opt151.0-0.3610 8.16 346 
 WEIJ HHN GH   ISg        1631 49.570              BER opt151.0-0.3210 8.16 346 
 WEIJ HHN GH    IAML      1631 49.760 6151.5  0.20 BER opt     -0.09   8.16 346 
 SHAI HHZ GH   IP         1631 55.630              BER opt 95.0 0.0110 62.6  42 
 SHAI HHE GH   ISg        1632 02.680              BER opt 95.0-0.3210 62.6  42 
 SHAI HHN GH    IAML      1632 03.340 1855.0  0.10 BER opt      0.12   62.6  42 
 KUKU HHN GH    IAML      1631 57.890  780.5  0.10 BER opt     -0.15   74.9 356 
 KUKU HHZ GH   IP         1631 57.940              BER opt 93.0 0.3610 74.9 356 
 KUKU HHN GH   ISg        1632 06.200              BER opt 93.0-0.1310 74.9 356 
 AKOS HHZ GH   IP         1632 01.030              BER opt 91.0 0.0610 96.3  26 
 AKOS HHE GH   ISg        1632 12.340              BER opt 91.0 0.2410 96.3  26 
 AKOS HHN GH    IAML      1632 14.090 1282.0  0.14 BER opt      0.22   96.3  26 
 KLEF HHZ GH   IP         1632 09.040              BER opt 91.0-0.0510  147  35 
 KLEF HHN GH    IAML      1632 11.240  321.5  0.12 BER opt     -0.09    147  35 
 KLEF HHN GH   ISg        1632 26.100              BER opt 91.0 0.2010  147  35 
 MRON HHZ GH   IP         1632 11.770              BER opt 91.0 0.2910  162 310 
 MRON HHN GH   ISg        1632 29.890              BER opt 91.0-0.0710  162 310 
                                                                                
 2013 0116 1813 19.2 L   5.427  -0.454 12.0  BER  2 .30 2.7LBER                1
 GAP=360   BER 0.880     999.9   999.9 28.1 -0.3620E+08  0.1889E+06 -0.1416E+06E
 2013-01-16-1811-31S.NSN___018                                                 6
 OLDACT:REG 21-08-27 22:33 OP:opt  STATUS:               ID:20130116181130     3
 OLDACT:UP  21-08-29 17:35 OP:opt  STATUS:               ID:20130116181130     3
 OLDACT:UP  21-12-03 13:15 OP:opt  STATUS:               ID:20130116181130     3
 OLDACT:UP  21-12-03 13:15 OP:opt  STATUS:               ID:20130116181130     3
 OLDACT:UP  21-12-12 11:15 OP:opt  STATUS:               ID:20130116181130     3
 OLDACT:UP  21-12-23 17:37 OP:opt  STATUS:               ID:20130116181130     3
 ACTION:UP  21-12-24 13:00 OP:opt  STATUS:               ID:20130116181130     I
 OLDACT:UP  21-12-24 12:59 OP:opt  STATUS:               ID:20130116181130     3
 STAT COM NTLO IPHASE   W HHMM SS.SSS   PAR1  PAR2 AGA OPE  AIN  RES W  DIS CAZ7
 WEIJ HHZ GH   IP         1813 23.790              BER opt118.0 0.3710 22.3  37 
 WEIJ HHN GH   ISg        1813 25.980              BER opt118.0-0.3610 22.3  37 
 WEIJ HHN GH    IAML      1813 26.350 1202.5  0.40 BER opt     -0.08   22.3  37 
 SHAI HHN GH    IAML      1813 36.050  253.0  0.18 BER opt     -0.09   80.4  45 
 KUKU HHN GH    IAML      1813 32.760  331.5  0.10 BER opt      0.06   85.2   6 
 KLEF HHZ GH   IP         1813 45.710              BER opt 76.0-0.3210  164  37 
 KLEF HHN GH   ISg        1814 05.580              BER opt 94.0 0.3110  164  37 
 KLEF HHE GH    IAML      1814 05.770  135.5  0.20 BER opt      0.13    164  37 
                                                                                
 2013 0121 1305 41.5 L   6.694   1.305 15.0  BER  5 .90 3.7LBER                1
 GAP=331   BER  2.28      25.9    73.1191.0  0.9343E+03 -0.1365E+05 -0.2830E+04E
 2013-01-21-1304-20S.NSN___018                                                 6
 OLDACT:REG 21-08-27 22:32 OP:opt  STATUS:               ID:20130121130420     3
 OLDACT:UP  21-08-28 13:35 OP:opt  STATUS:               ID:20130121130420     3
 OLDACT:UP  21-08-28 13:35 OP:opt  STATUS:               ID:20130121130420     3
 OLDACT:UP  21-08-29 18:14 OP:opt  STATUS:               ID:20130121130420     3
 OLDACT:UP  21-08-29 18:14 OP:opt  STATUS:               ID:20130121130420     3
 OLDACT:UP  21-08-29 18:14 OP:opt  STATUS:               ID:20130121130420     3
 OLDACT:UP  21-12-03 13:15 OP:opt  STATUS:               ID:20130121130420     3
 OLDACT:UP  21-12-12 11:15 OP:opt  STATUS:               ID:20130121130420     3
 ACTION:UP  21-12-24 13:00 OP:opt  STATUS:               ID:20130121130420     I
 OLDACT:UP  21-12-23 17:37 OP:opt  STATUS:               ID:20130121130420     3
 STAT COM NTLO IPHASE   W HHMM SS.SSS   PAR1  PAR2 AGA OPE  AIN  RES W  DIS CAZ7
 KLEF HHZ GH   IP         1305 57.120              BER opt 91.0-0.2710 96.0 265 
 KLEF HHN GH    IAML      1306 00.810 2772.0  0.24 BER opt      0.01   96.0 265 
 AKOS HHZ GH   IP         1306 04.940              BER opt 91.0-0.0110  144 252 
 AKOS HHE GH   ISg        1306 23.240              BER opt 91.0 1.9110  144 252 
 AKOS HHN GH    IAML      1306 24.020 4656.0  0.12 BER opt      0.52    144 252 
 SHAI HHZ GH   IP         1306 07.750              BER opt 91.0 0.0610  161 239 
 SHAI HHE GH    IAML      1306 28.470  986.0  0.26 BER opt     -0.07    161 239 
 KUKU HHZ GH   IP         1306 12.530              BER opt 76.0-0.1610  193 253 
 KUKU HHN GH   ISg        1306 33.290              BER opt 90.0-1.4410  193 253 
 KUKU HHN GH    IAML      1306 35.850  503.0  0.12 BER opt     -0.21    193 253 
 WEIJ HHZ GH   IP         1306 16.990              BER opt 76.0 0.4010  219 236 
 WEIJ HHN GH    IAML      1306 18.220  340.5  0.18 BER opt     -0.27    219 236 
 WEIJ HHN GH   ISg        1306 41.100              BER opt 90.0-0.4910  219 236 
                                                                                
 2013 0212 1748 02.4 L   5.494  -0.547 8.30  BER  5 .40 2.8LBER                1
 GAP=251   BER  1.09       6.1     3.1 12.4  0.4672E+01  0.1303E+02 -0.4484E+01E
 2013-02-12-1746-27S.NSN___018                                                 6
 OLDACT:REG 21-08-27 22:32 OP:opt  STATUS:               ID:20130212174626     3
 OLDACT:UP  21-08-28 13:42 OP:opt  STATUS:               ID:20130212174626     3
 OLDACT:UP  21-08-29 18:16 OP:opt  STATUS:               ID:20130212174626     3
 OLDACT:UP  21-08-29 18:16 OP:opt  STATUS:               ID:20130212174626     3
 OLDACT:UP  21-08-29 18:17 OP:opt  STATUS:               ID:20130212174626     3
 OLDACT:UP  21-08-29 18:18 OP:opt  STATUS:               ID:20130212174626     3
 OLDACT:UP  21-12-03 13:16 OP:opt  STATUS:               ID:20130212174626     3
 OLDACT:UP  21-12-03 13:16 OP:opt  STATUS:               ID:20130212174626     3
 OLDACT:UP  21-12-12 11:16 OP:opt  STATUS:               ID:20130212174626     3
 ACTION:UP  21-12-24 13:00 OP:opt  STATUS:               ID:20130212174626     I
 OLDACT:UP  21-12-23 17:38 OP:opt  STATUS:               ID:20130212174626     3
 STAT COM NTLO IPHASE   W HHMM SS.SSS   PAR1  PAR2 AGA OPE  AIN  RES W  DIS CAZ7
 WEIJ HHZ GH   IP         1748 06.870              BER opt108.0-0.0210 25.8  66 
 WEIJ HHN GH   ISg        1748 10.020              BER opt108.0-0.0010 25.8  66 
 WEIJ HHN GH    IAML      1748 23.090 1352.5  0.18 BER opt     -0.15   25.8  66 
 KUKU HHZ GH   IP         1748 15.230              BER opt 96.0-0.3610 79.6  14 
 KUKU HHN GH   ISg        1748 24.430              BER opt 96.0-0.3710 79.6  14 
 SHAI HHZ GH   IP         1748 16.180              BER opt 95.0-0.0110 83.4  54 
 MRON HHZ GH   IP         1748 26.950              BER opt 93.0 0.5510  146 317 
 MRON HHN GH    IAML      1748 29.290  239.0  0.10 BER opt      0.14    146 317 
 MRON HHE GH   ISg        1748 43.110              BER opt 93.0-0.0710  146 317 
 KLEF HHZ GH   IP         1748 28.950              BER opt 76.0-0.5310  165  41 
 KLEF HHN GH   ISg        1748 49.390              BER opt 93.0 0.8010  165  41 
                                                                                
 2013 0316 1758 33.9 L   5.512  -0.525 11.5  BER  4 .10 3.0LBER                1
 GAP=248   BER 0.420       3.2     1.3  3.4  0.1115E+01  0.2046E+01 -0.1705E+01E
 2013-03-16-1756-58S.NSN___018_SEI                                             6
 OLDACT:REG 21-08-27 22:30 OP:opt  STATUS:               ID:20130316175657     3
 OLDACT:UP  21-08-28 13:45 OP:opt  STATUS:               ID:20130316175657     3
 OLDACT:UP  21-08-29 18:28 OP:opt  STATUS:               ID:20130316175657     3
 OLDACT:UP  21-08-29 18:35 OP:opt  STATUS:               ID:20130316175657     3
 OLDACT:UP  21-12-03 13:17 OP:opt  STATUS:               ID:20130316175657     3
 OLDACT:UP  21-12-12 11:16 OP:opt  STATUS:               ID:20130316175657     3
 ACTION:UP  21-12-24 13:00 OP:opt  STATUS:               ID:20130316175657     I
 OLDACT:UP  21-12-23 17:38 OP:opt  STATUS:               ID:20130316175657     3
 STAT COM NTLO IPHASE   W HHMM SS.SSS   PAR1  PAR2 AGA OPE  AIN  RES W  DIS CAZ7
 WEIJ HHZ GH   IP         1758 38.160              BER opt117.0 0.0410 22.8  68 
 WEIJ HHN GH    IAML      1758 38.680 1019.5  0.12 BER opt     -0.49   22.8  68 
 WEIJ HHN GH   ISg        1758 41.030              BER opt117.0-0.0410 22.8  68 
 KUKU HHN GH    IAML      1758 59.420  722.0  0.16 BER opt     -0.00   77.2  13 
 SHAI HHZ GH   IP         1758 47.230              BER opt 98.0 0.0110 80.3  54 
 SHAI HHN GH    IAML      1759 01.800  523.5  0.14 BER opt     -0.12   80.3  54 
 MRON HHZ GH   IP         1758 57.950              BER opt 76.0 0.1810  146 316 
 MRON HHE GH   ISg        1759 14.660              BER opt 94.0-0.1110  146 316 
 MRON HHN GH    IAML      1759 18.990  341.0  0.10 BER opt      0.10    146 316 
 KLEF HHZ GH   IP         1759 00.120              BER opt 76.0-0.2210  162  41 
 KLEF HHN GH    IAML      1759 01.340  729.5  0.10 BER opt      0.51    162  41 
 KLEF HHT GH   ISg        1759 19.390              BER opt 94.0 0.1310  162  41 
                                                                                
