 2013 1210 0051 55.4 L   5.500  -0.361 11.8  BER  4 .20 3.3LBER                1
 GAP=276   BER 0.590       5.2     1.9  2.3 -0.3633E+01  0.4319E-01 -0.1593E+01E
 2013-12-10-0050-39S.NSN___015                                                 6
 OLDACT:REG 21-09-15 21:34 OP:opt  STATUS:               ID:20131210005039     3
 OLDACT:UP  21-09-15 21:38 OP:opt  STATUS:               ID:20131210005039     3
 OLDACT:UP  21-12-03 13:27 OP:opt  STATUS:               ID:20131210005039     3
 OLDACT:UP  21-12-12 11:34 OP:opt  STATUS:               ID:20131210005039     3
 OLDACT:UP  21-12-23 17:46 OP:opt  STATUS:               ID:20131210005039     3
 ACTION:UP  21-12-24 13:09 OP:opt  STATUS:               ID:20131210005039     I
 OLDACT:UP  21-12-24 13:07 OP:opt  STATUS:               ID:20131210005039     3
 STAT COM NTLO IPHASE   W HHMM SS.SSS   PAR1  PAR2 AGA OPE  AIN  RES W  DIS CAZ7
 WEIJ HHN GH   IP         0051 57.900              BER opt139.0-0.1010 10.3  17 
 WEIJ HHN GH   ISg        0051 59.940              BER opt139.0 0.1210 10.3  17 
 WEIJ HHE GH    IAML      0052 00.220 8088.0  0.16 BER opt     -0.17   10.3  17 
 KUKU HHZ GH   IP         0052 08.270              BER opt 98.0 0.1310 76.6 359 
 KUKU HHN GH    IAML      0052 22.470 1045.5  0.12 BER opt     -0.17   76.6 359 
 AKOS HHN GH    IAML      0052 31.920  666.0  0.24 BER opt     -0.19    100  28 
 KLEF HHZ GH   IP         0052 19.860              BER opt 76.0-0.3510  152  36 
 KLEF HHN GH   ISg        0052 37.920              BER opt 94.0-0.0110  152  36 
 KLEF HHN GH    Sn        0052 37.920              BER opt 70.0 0.1210  152  36 
 KLEF HHE GH    IAML      0052 40.560  845.0  0.10 BER opt      0.21    152  36 
 MRON HHZ GH   IP         0052 21.830              BER opt 76.0 0.3310  160 312 
 MRON HHN GH   ISg        0052 39.940              BER opt 94.0-0.2510  160 312 
 MRON HHN GH    IAML      0052 42.370  991.0  0.24 BER opt      0.32    160 312 
                                                                                
 2013 1211 1744 44.0 L   6.192  -0.088 0.90  BER  5 .30 3.1LBER                1
 GAP=146   BER 0.700       3.8     1.6 10.9 -0.4165E+01 -0.6125E+01  0.2256E+02E
 2013-12-11-1742-47S.NSN___015                                                 6
 OLDACT:REG 21-08-27 21:25 OP:opt  STATUS:               ID:20131211174247     3
 OLDACT:UP  21-08-28 15:40 OP:opt  STATUS:               ID:20131211174247     3
 OLDACT:UP  21-08-29 22:25 OP:opt  STATUS:               ID:20131211174247     3
 OLDACT:UP  21-12-03 13:28 OP:opt  STATUS:               ID:20131211174247     3
 OLDACT:UP  21-12-12 11:34 OP:opt  STATUS:               ID:20131211174247     3
 OLDACT:UP  21-12-23 17:46 OP:opt  STATUS:               ID:20131211174247     3
 ACTION:UP  21-12-24 13:09 OP:opt  STATUS:               ID:20131211174247     I
 OLDACT:UP  21-12-24 13:08 OP:opt  STATUS:               ID:20131211174247     3
 STAT COM NTLO IPHASE   W HHMM SS.SSS   PAR1  PAR2 AGA OPE  AIN  RES W  DIS CAZ7
 AKOS HHZ GH   IP         1744 47.450              BER opt 75.0-0.0210 20.8  56 
 AKOS HHN GH   ISg        1744 49.870              BER opt 93.0-0.1410 20.8  56 
 AKOS HHN GH    IAML      1744 50.370 5626.0  0.20 BER opt      0.11   20.8  56 
 KUKU HHZ GH   IP         1744 49.340              BER opt 75.0 0.1910 31.1 270 
 KUKU HHN GH   ISg        1744 53.300              BER opt 92.0 0.3310 31.1 270 
 KUKU HHN GH    IAML      1744 59.910 1407.0  0.24 BER opt     -0.28   31.1 270 
 WEIJ HHZ GH   IP         1744 55.850              BER opt 75.0-0.0210 72.1 202 
 WEIJ HHN GH    IAML      1745 11.410  466.5  0.34 BER opt     -0.27   72.1 202 
 KLEF HHZ GH   IP         1744 55.970              BER opt 75.0-0.3410 74.8  51 
 KLEF HHN GH   ISg        1745 05.970              BER opt 91.0 0.4310 74.8  51 
 KLEF HHE GH    IAML      1745 07.480 1403.0  0.14 BER opt      0.23   74.8  51 
 MRON HHZ GH   IP         1745 08.920              BER opt 75.0-0.1110  152 281 
 MRON HHN GH   ISg        1745 27.570              BER opt 90.0-0.3210  152 281 
 MRON HHN GH    IAML      1745 31.860  458.0  0.22 BER opt      0.23    152 281 
                                                                                
 2013 1212 1051 48.7 L   6.216  -0.118 0.10  BER  5 .90 3.0LBER                1
 GAP=134   BER  2.38      12.6     5.1 40.5 -0.4088E+02 -0.6330E+02  0.2523E+03E
 2013-12-12-1049-53S.NSN___015                                                 6
 OLDACT:REG 21-08-27 20:37 OP:opt  STATUS:               ID:20131212104952     3
 OLDACT:UP  21-08-28 15:29 OP:opt  STATUS:               ID:20131212104952     3
 OLDACT:UP  21-12-03 13:28 OP:opt  STATUS:               ID:20131212104952     3
 OLDACT:UP  21-12-12 11:34 OP:opt  STATUS:               ID:20131212104952     3
 OLDACT:UP  21-12-23 17:47 OP:opt  STATUS:               ID:20131212104952     3
 ACTION:UP  21-12-24 13:09 OP:opt  STATUS:               ID:20131212104952     I
 OLDACT:UP  21-12-24 13:08 OP:opt  STATUS:               ID:20131212104952     3
 STAT COM NTLO IPHASE   W HHMM SS.SSS   PAR1  PAR2 AGA OPE  AIN  RES W  DIS CAZ7
 AKOS HHZ GH   IP         1051 52.400              BER opt 75.0-0.0810 22.5  66 
 AKOS HHN GH   ISg        1051 55.390              BER opt 91.0 0.2110 22.5  66 
 AKOS HHN GH    IAML      1051 55.950 4187.0  0.18 BER opt      0.09   22.5  66 
 KUKU HHZ GH   IP         1051 54.040              BER opt 75.0 0.6710 27.9 265 
 KUKU HHE GH   ISg        1051 54.580              BER opt 91.0-2.1710 27.9 265 
 KUKU HHN GH    IAML      1051 58.520  904.0  0.20 BER opt     -0.47   27.9 265 
 WEIJ HHZ GH   IP         1052 01.010              BER opt 75.0 0.1810 73.4 199 
 KLEF HHZ GH   IP         1052 01.310              BER opt 75.0 0.0810 75.8  55 
 KLEF HHN GH   ISg        1052 09.840              BER opt 90.0-0.7210 75.8  55 
 KLEF HHE GH    IAML      1052 13.900 1053.0  0.20 BER opt      0.17   75.8  55 
 MRON HHZ GH   IP         1052 14.230      D       BER opt 75.0 1.0710  149 281 
 MRON HHN GH   ISg        1052 32.270              BER opt 90.0 0.7610  149 281 
 MRON HHE GH    IAML      1052 34.090  406.5  0.14 BER opt      0.22    149 281 
                                                                                
 2013 1214 1627 44.9 L   5.957  -0.461 16.2  BER  3 .00 3.1LBER                1
 GAP=220   BER 0.330     0.900          4.3 -0.1863E+01 -0.1121E+02  0.1512E+01E
 2013-12-14-1625-50S.NSN___015_SEI                                             6
 OLDACT:REG 21-08-27 20:34 OP:opt  STATUS:               ID:20131214162550     3
 OLDACT:UP  21-08-28 15:35 OP:opt  STATUS:               ID:20131214162550     3
 OLDACT:UP  21-12-03 13:28 OP:opt  STATUS:               ID:20131214162550     3
 OLDACT:UP  21-12-12 11:35 OP:opt  STATUS:               ID:20131214162550     3
 OLDACT:UP  21-12-23 17:47 OP:opt  STATUS:               ID:20131214162550     3
 ACTION:UP  21-12-24 13:09 OP:opt  STATUS:               ID:20131214162550     I
 OLDACT:UP  21-12-24 13:08 OP:opt  STATUS:               ID:20131214162550     3
 STAT COM NTLO IPHASE   W HHMM SS.SSS   PAR1  PAR2 AGA OPE  AIN  RES W  DIS CAZ7
 KUKU HHZ GH   IP         1627 50.250              BER opt117.0 0.0610 28.0  21 
 KUKU HHN GH   ISg        1627 53.870              BER opt117.0-0.0410 28.0  21 
 KUKU HHN GH    IAML      1628 03.060 4124.0  0.14 BER opt      0.14   28.0  21 
 WEIJ HHN GH   IP         1627 52.360              BER opt106.0-0.0610 43.1 161 
 WEIJ HHN GH   ISg        1627 57.730              BER opt106.0 0.0410 43.1 161 
 WEIJ HHN GH    IAML      1627 59.300  916.0  0.30 BER opt     -0.31   43.1 161 
 KLEF HHZ GH   IP         1628 05.090              BER opt 92.0 0.0010  123  54 
 KLEF HHN GH    IAML      1628 29.360  690.0  2.96 BER opt      0.19    123  54 
                                                                                
 2013 1219 0223 36.6 L   5.661  -0.376 0.10  BER  4 2.5 3.7LBER                1
 GAP=158   BER  6.36      12.9    18.1114.9  0.7018E+02  0.3243E+03 -0.1316E+03E
 2013-12-19-0221-48S.NSN___015                                                 6
 OLDACT:REG 21-09-15 21:40 OP:opt  STATUS:               ID:20131219022147     3
 OLDACT:UP  21-09-15 21:42 OP:opt  STATUS:               ID:20131219022147     3
 OLDACT:UP  21-12-03 13:28 OP:opt  STATUS:               ID:20131219022147     3
 OLDACT:UP  21-12-12 11:35 OP:opt  STATUS:               ID:20131219022147     3
 OLDACT:UP  21-12-23 17:47 OP:opt  STATUS:               ID:20131219022147     3
 ACTION:UP  21-12-24 13:09 OP:opt  STATUS:               ID:20131219022147     I
 OLDACT:UP  21-12-24 13:08 OP:opt  STATUS:               ID:20131219022147     3
 STAT COM NTLO IPHASE   W HHMM SS.SSS   PAR1  PAR2 AGA OPE  AIN  RES W  DIS CAZ7
 WEIJ HHN GH   IP         0223 37.490              BER opt 92.0-0.7310 9.37 149 
 WEIJ HHN GH   ISg        0223 39.440              BER opt 92.0 0.1110 9.37 149 
 WEIJ HHE GH    IAML      0223 39.81019264.5  0.14 BER opt     -0.39   9.37 149 
 KUKU HHZ GH   ISg        0223 47.860              BER opt 90.0-5.6810 58.7   1 
 KUKU HHN GH   ISg        0223 57.020              BER opt 90.0 3.4810 58.7   1 
 KUKU HHE GH    IAML      0224 01.780 5880.5  0.12 BER opt      0.07   58.7   1 
 KLEF HHZ GH   IP         0223 59.570              BER opt 75.0 0.0810  139  41 
 KLEF HHN GH   ISg        0224 18.240              BER opt 90.0 1.6110  139  41 
 MRON HHZ GH   IP         0224 00.860      D       BER opt 75.0-0.0010  147 307 
 MRON HHE GH   ISg        0224 20.190              BER opt 90.0 1.1410  147 307 
 MRON HHN GH    IAML      0224 22.040 2603.0  0.20 BER opt      0.33    147 307 
                                                                                
 2013 1221 1820 31.5 L   5.782  -0.430 11.7  BER  3 .00 2.9LBER                1
 GAP=215   BER 0.270       1.2     4.4  3.2  0.4058E+01 -0.1021E+02 -0.2932E+01E
 2013-12-21-1819-27S.NSN___015                                                 6
 OLDACT:REG 21-09-15 21:54 OP:opt  STATUS:               ID:20131221181927     3
 OLDACT:UP  21-09-15 21:56 OP:opt  STATUS:               ID:20131221181927     3
 OLDACT:UP  21-12-03 13:28 OP:opt  STATUS:               ID:20131221181927     3
 OLDACT:UP  21-12-12 11:35 OP:opt  STATUS:               ID:20131221181927     3
 OLDACT:UP  21-12-23 17:47 OP:opt  STATUS:               ID:20131221181927     3
 ACTION:UP  21-12-24 13:09 OP:opt  STATUS:               ID:20131221181927     I
 OLDACT:UP  21-12-24 13:08 OP:opt  STATUS:               ID:20131221181927     3
 STAT COM NTLO IPHASE   W HHMM SS.SSS   PAR1  PAR2 AGA OPE  AIN  RES W  DIS CAZ7
 WEIJ HHZ GH   IP         1820 35.920              BER opt116.0 0.0110 23.9 154 
 WEIJ HHN GH   ISg        1820 38.970              BER opt116.0-0.0110 23.9 154 
 WEIJ HHN GH    IAML      1820 40.540 2017.5  0.30 BER opt     -0.05   23.9 154 
 KUKU HHZ GH   IP         1820 39.300              BER opt104.0-0.0110 45.9   8 
 KUKU HHZ GH   EP         1820 39.300              BER opt104.0-0.0110 45.9   8 
 KUKU HHE GH   ISg        1820 44.770              BER opt104.0 0.0110 45.9   8 
 KUKU HHN GH    IAML      1820 46.820  953.0  0.74 BER opt     -0.06   45.9   8 
 KLEF HHN GH   IP         1820 53.350      D       BER opt 76.0-0.0210  133  46 
 KLEF HHZ GH   IP         1820 53.380              BER opt 76.0 0.0210  133  46 
 MRON HHE GH    IAML      1821 12.880  294.0  0.12 BER opt      0.10    135 304 
                                                                                
 2013 1221 1820 23.7 L   5.736  -0.865 1.60  BER  4 1.5 3.2LBER                1
 GAP=216   BER  3.66      19.2    21.5105.4  0.2346E+03  0.1711E+04  0.8591E+03E
 2013-12-21-1819-43S.NSN___015                                                 6
 OLDACT:REG 21-09-15 21:51 OP:opy  STATUS:               ID:20131221181943     3
 OLDACT:UP  21-09-16 23:50 OP:opt  STATUS:               ID:20131221181943     3
 OLDACT:UP  21-12-03 13:28 OP:opt  STATUS:               ID:20131221181943     3
 OLDACT:UP  21-12-12 11:35 OP:opt  STATUS:               ID:20131221181943     3
 OLDACT:UP  21-12-23 17:47 OP:opt  STATUS:               ID:20131221181943     3
 ACTION:UP  21-12-24 13:09 OP:opt  STATUS:               ID:20131221181943     I
 OLDACT:UP  21-12-24 13:08 OP:opt  STATUS:               ID:20131221181943     3
 STAT COM NTLO IPHASE   W HHMM SS.SSS   PAR1  PAR2 AGA OPE  AIN  RES W  DIS CAZ7
 WEIJ HHZ GH   IP         1820 35.930              BER opt 91.0 2.1610 61.1 105 
 WEIJ HHE GH   ISg        1820 38.880              BER opt 91.0-1.9410 61.1 105 
 WEIJ HHN GH    IAML      1820 40.560 2017.5  0.30 BER opt      0.10   61.1 105 
 KUKU HHE GH   ISg        1820 44.400              BER opt 90.0-0.1710 74.6  47 
 KUKU HHN GH    IAML      1820 46.790  953.0  0.74 BER opt     -0.10   74.6  47 
 MRON HHZ GH   IP         1820 39.370      D       BER opt 90.0-1.1810  102 322 
 KLEF HHZ GH   IP         1820 53.410              BER opt 90.0 1.1210  174  56 
                                                                                
 2014 0109 1818 47.5 L   5.762  -0.399 13.9  BER  4 .40 3.1LBER                1
 GAP=145   BER  1.04       2.9     3.0  7.3  0.5158E-01  0.4203E+01 -0.1170E+02E
 2014-01-09-1817-10S.NSN___015_SEI                                             6
 OLDACT:REG 21-08-27 20:11 OP:opt  STATUS:               ID:20140109181710     3
 OLDACT:UP  21-08-28 15:44 OP:opt  STATUS:               ID:20140109181710     3
 OLDACT:UP  21-08-29 22:38 OP:opt  STATUS:               ID:20140109181710     3
 OLDACT:UP  21-08-29 22:44 OP:opt  STATUS:               ID:20140109181710     3
 OLDACT:UP  21-12-03 13:29 OP:opt  STATUS:               ID:20140109181710     3
 OLDACT:UP  21-12-12 11:35 OP:opt  STATUS:               ID:20140109181710     3
 ACTION:UP  21-12-24 12:56 OP:opt  STATUS:               ID:20140109181710     I
 OLDACT:UP  21-12-23 17:48 OP:opt  STATUS:               ID:20140109181710     3
 STAT COM NTLO IPHASE   W HHMM SS.SSS   PAR1  PAR2 AGA OPE  AIN  RES W  DIS CAZ7
 WEIJ HHZ GH   IP         1818 51.550              BER opt124.0-0.0210 20.5 159 
 WEIJ HHE GH   ISg        1818 54.500              BER opt124.0 0.0710 20.5 159 
 WEIJ HHN GH    IAML      1818 55.660 2361.5  0.38 BER opt     -0.26   20.5 159 
 KUKU HHZ GH   IP         1818 54.860              BER opt106.0-0.7810 47.6   4 
 KUKU HHN GH   ISg        1819 01.230              BER opt106.0-0.1310 47.6   4 
 KUKU HHE GH    IAML      1819 01.420 4208.0  0.12 BER opt      0.37   47.6   4 
 AKOS HHN GH    IAML      1819 01.620  505.0  0.12 BER opt     -0.26   78.6  41 
 KLEF HHZ GH   IP         1819 08.910              BER opt 76.0-0.1710  132  45 
 KLEF HHN GH   ISg        1819 25.240              BER opt 96.0 0.6310  132  45 
 KLEF HHN GH    IAML      1819 26.990  470.0  0.10 BER opt      0.05    132  45 
 MRON HHZ GH   IP         1819 10.090              BER opt 76.0-0.0210  139 304 
 MRON HHN GH   ISg        1819 26.840              BER opt 95.0 0.4310  139 304 
 MRON HHE GH    IAML      1819 27.740  498.5  0.14 BER opt      0.11    139 304 
                                                                                
 2014 0110 0620 39.7 L   5.709  -0.239 14.1  BER  4 .00 2.9LBER                1
 GAP=181   BER 0.290       1.2     1.1  2.6 -0.3340E+00  0.1239E+00 -0.2256E+01E
 2014-01-10-0620-21S.NSN___015                                                 6
 OLDACT:REG 21-09-16 23:14 OP:opt  STATUS:               ID:20140110062020     3
 OLDACT:UP  21-09-16 23:20 OP:opt  STATUS:               ID:20140110062020     3
 OLDACT:UP  21-09-16 23:21 OP:opt  STATUS:               ID:20140110062020     3
 OLDACT:UP  21-09-16 23:22 OP:opt  STATUS:               ID:20140110062020     3
 OLDACT:UP  21-09-16 23:22 OP:opt  STATUS:               ID:20140110062020     3
 OLDACT:UP  21-12-03 13:29 OP:opt  STATUS:               ID:20140110062020     3
 OLDACT:UP  21-12-12 11:35 OP:opt  STATUS:               ID:20140110062020     3
 OLDACT:UP  21-12-23 17:48 OP:opt  STATUS:               ID:20140110062020     3
 ACTION:UP  21-12-24 12:56 OP:opt  STATUS:               ID:20140110062020     I
 OLDACT:UP  21-12-24 12:56 OP:opt  STATUS:               ID:20140110062020     3
 STAT COM NTLO IPHASE   W HHMM SS.SSS   PAR1  PAR2 AGA OPE  AIN  RES W  DIS CAZ7
 WEIJ HHZ GH   IP         0620 43.410              BER opt130.0 0.0210 17.0 218 
 WEIJ HHN GH   ISg        0620 45.930              BER opt130.0-0.0210 17.0 218 
 WEIJ HHE GH    IAML      0620 46.690  838.5  0.20 BER opt     -0.49   17.0 218 
 KUKU HHZ GH   IP         0620 49.120              BER opt 76.0-0.0010 55.3 345 
 KUKU HHN GH   ISg        0620 55.740              BER opt104.0 0.0410 55.3 345 
 KUKU HHE GH    IAML      0620 56.740 1787.5  0.12 BER opt      0.36   55.3 345 
 KLEF HHE GH   ISg        0621 14.900              BER opt 96.0-0.0210  125  37 
 KLEF HHE GH    IAML      0621 20.000  319.0  0.10 BER opt      0.12    125  37 
 MRON HHE GH   ISg        0621 23.670              BER opt 95.0-0.0210  157 302 
                                                                                
 2014 0113 2209 02.5 L   5.583  -0.299 10.7  BER  3 .40 2.9LBER                1
 GAP=243   BER 0.940       7.3     3.2  4.9 -0.7656E+01  0.1485E+01 -0.2456E+02E
 2014-01-13-2207-29S.NSN___015                                                 6
 OLDACT:REG 21-08-27 20:16 OP:opt  STATUS:               ID:20140113220729     3
 OLDACT:UP  21-08-29 22:50 OP:opt  STATUS:               ID:20140113220729     3
 OLDACT:UP  21-12-03 13:29 OP:opt  STATUS:               ID:20140113220729     3
 OLDACT:UP  21-12-12 11:36 OP:opt  STATUS:               ID:20140113220729     3
 OLDACT:UP  21-12-23 17:48 OP:opt  STATUS:               ID:20140113220729     3
 ACTION:UP  21-12-24 12:57 OP:opt  STATUS:               ID:20140113220729     I
 OLDACT:UP  21-12-24 12:56 OP:opt  STATUS:               ID:20140113220729     3
 STAT COM NTLO IPHASE   W HHMM SS.SSS   PAR1  PAR2 AGA OPE  AIN  RES W  DIS CAZ7
 WEIJ HHZ GH   IP         2209 04.360              BER opt161.0-0.0310 3.80 279 
 WEIJ HHN GH   ISg        2209 05.730              BER opt161.0 0.0210 3.80 279 
 WEIJ HHE GH    IAML      2209 06.210 5890.5  0.22 BER opt      0.01   3.80 279 
 KLEF HHZ GH   IP         2209 25.000              BER opt 76.0-0.5210  140  36 
 KLEF HHN GH   ISg        2209 42.110              BER opt 94.0 0.3010  140  36 
 KLEF HHE GH    IAML      2209 44.250  303.0  0.12 BER opt      0.18    140  36 
 MRON HHZ GH   IP         2209 29.070              BER opt 76.0 0.5510  159 308 
 MRON HHN GH   ISg        2209 46.750              BER opt 94.0-0.3110  159 308 
 MRON HHN GH    IAML      2209 52.480  102.5  0.58 BER opt     -0.19    159 308 
                                                                                
