 2013 0525 0315 08.6 L   5.536  -0.296 3.90  BER  6 3.0 3.3LBER                1
 GAP=267   BER  8.06      63.1    18.3148.9 -0.4878E+03 -0.1001E+04  0.7216E+04E
 2013-05-25-0313-34S.NSN___018                                                 6
 OLDACT:REG 21-08-27 22:20 OP:opt  STATUS:               ID:20130525031333     3
 OLDACT:UP  21-08-28 14:12 OP:opt  STATUS:               ID:20130525031333     3
 OLDACT:UP  21-08-28 14:12 OP:opt  STATUS:               ID:20130525031333     3
 OLDACT:UP  21-08-28 14:12 OP:opt  STATUS:               ID:20130525031333     3
 OLDACT:UP  21-08-29 19:55 OP:opt  STATUS:               ID:20130525031333     3
 OLDACT:UP  21-08-29 19:57 OP:opt  STATUS:               ID:20130525031333     3
 OLDACT:UP  21-08-29 20:00 OP:opt  STATUS:               ID:20130525031333     3
 OLDACT:UP  21-08-29 20:01 OP:opt  STATUS:               ID:20130525031333     3
 OLDACT:UP  21-12-03 13:19 OP:opt  STATUS:               ID:20130525031333     3
 OLDACT:UP  21-12-12 11:19 OP:opt  STATUS:               ID:20130525031333     3
 ACTION:UP  21-12-24 13:02 OP:opt  STATUS:               ID:20130525031333     I
 OLDACT:UP  21-12-23 17:40 OP:opt  STATUS:               ID:20130525031333     3
 STAT COM NTLO IPHASE   W HHMM SS.SSS   PAR1  PAR2 AGA OPE  AIN  RES W  DIS CAZ7
 WEIJ HHZ GH   IP         0315 09.400              BER opt119.0-0.5910 7.19 325 
 WEIJ HHN GH   ISg        0315 10.600              BER opt119.0-0.3510 7.19 325 
 WEIJ HHN GH    IAML      0315 10.68042355.5  0.12 BER opt      0.25   7.19 325 
 SHAI HHZ GH   IP         0315 17.700              BER opt 93.0-0.7510 59.6  42 
 SHAI HHN GH   ISg        0315 24.710              BER opt 93.0-0.6210 59.6  42 
 SHAI HHN GH    IAML      0315 29.710 1164.5  0.16 BER opt     -0.26   59.6  42 
 KUKU HHZ GH   IP         0315 19.650              BER opt 92.0-1.0210 73.1 354 
 KUKU HHE GH   ISg        0315 28.260              BER opt 92.0-0.8410 73.1 354 
 KUKU HHN GH   IP         0315 31.360              BER opt 92.0 10.710 73.1 354 
 KUKU HHN GH    IAML      0315 33.740 1362.5  0.12 BER opt     -0.07   73.1 354 
 AKOS HHZ GH   IP         0315 23.020              BER opt 92.0-0.9910 93.5  26 
 AKOS HHE GH   ISg        0315 35.030              BER opt 92.0 0.2510 93.5  26 
 AKOS HHN GH    IAML      0315 40.120  640.5  0.10 BER opt     -0.24   93.5  26 
 KLEF HHZ GH   IP         0315 31.020              BER opt 91.0-1.3510  144  34 
 KLEF HHE GH   ISg        0315 48.410              BER opt 91.0-0.5810  144  34 
 KLEF HHN GH   ISg        0315 48.720              BER opt 91.0-0.2710  144  34 
 KLEF HHN GH    IAML      0315 49.950 1222.0  0.10 BER opt      0.35    144  34 
 MRON HHZ GH   IP         0315 34.120              BER opt 91.0-1.2610  163 309 
 MRON HHN GH   ISg        0315 51.770              BER opt 91.0-2.3510  163 309 
 MRON HHN GH    IAML      0315 54.780  391.0  0.22 BER opt     -0.05    163 309 
                                                                                
 2013 0531 1756 31.1 L   5.429  -0.531 15.0  BER  5 .40 3.2LBER                1
 GAP=268   BER  1.13       6.8     3.6 10.1  0.6245E+01  0.1889E+02  0.1399E+02E
 2013-05-31-1754-56S.NSN___018                                                 6
 OLDACT:REG 21-09-15 20:16 OP:opt  STATUS:               ID:20130531175456     3
 OLDACT:UP  21-09-15 20:21 OP:opt  STATUS:               ID:20130531175456     3
 OLDACT:UP  21-12-03 13:19 OP:opt  STATUS:               ID:20130531175456     3
 OLDACT:UP  21-12-12 11:19 OP:opt  STATUS:               ID:20130531175456     3
 ACTION:UP  21-12-24 13:02 OP:opt  STATUS:               ID:20130531175456     I
 OLDACT:UP  21-12-23 17:40 OP:opt  STATUS:               ID:20130531175456     3
 STAT COM NTLO IPHASE   W HHMM SS.SSS   PAR1  PAR2 AGA OPE  AIN  RES W  DIS CAZ7
 WEIJ HHZ GH   IP         1756 36.630              BER    115.0 0.3110 28.1  51 
 WEIJ HHN GH   ISg        1756 39.450              BER    115.0-0.5410 28.1  51 
 WEIJ HHE GH    IAML      1756 40.630 2250.5  0.32 BER         -0.22   28.1  51 
 KUKU HHZ GH   IP         1756 44.840              BER opt 92.0-0.5510 86.3  12 
 KUKU HHN GH   ISg        1756 56.060              BER opt 92.0 0.6510 86.3  12 
 KUKU HHN GH    IAML      1756 57.950  458.5  0.22 BER opt     -0.32   86.3  12 
 SHAI HHZ GH   IP         1756 45.610              BER opt 92.0 0.2010 86.5  49 
 SHAI HHN GH    IAML      1756 58.630  555.0  0.36 BER opt     -0.23   86.5  49 
 MRON HHZ GH   IP         1756 56.340              BER opt 91.0 0.4810  152 319 
 MRON HHE GH   ISg        1757 12.730              BER opt 91.0-0.4810  152 319 
 MRON HHN GH    IAML      1757 16.850  480.0  0.36 BER opt      0.09    152 319 
 KLEF HHZ GH   IP         1756 58.540              BER opt 76.0-0.0410  170  39 
 KLEF HHN GH   ISg        1757 17.840              BER opt 90.0-0.0310  170  39 
 KLEF HHE GH    IAML      1757 19.450 1448.0  0.16 BER opt      0.66    170  39 
                                                                                
 2013 0607 1817 15.3 L   5.403  -0.536 15.0  BER  4 .70 3.4LBER                1
 GAP=272   BER  1.70      11.5     5.6 18.3  0.1321E+02  0.5182E+02  0.6105E+02E
 2013-06-07-1815-41S.NSN___015                                                 6
 OLDACT:REG 21-09-15 20:26 OP:opt  STATUS:               ID:20130607181541     3
 OLDACT:UP  21-09-15 20:28 OP:opt  STATUS:               ID:20130607181541     3
 OLDACT:UP  21-12-03 13:19 OP:opt  STATUS:               ID:20130607181541     3
 OLDACT:UP  21-12-03 13:20 OP:opt  STATUS:               ID:20130607181541     3
 OLDACT:UP  21-12-12 11:19 OP:opt  STATUS:               ID:20130607181541     3
 ACTION:UP  21-12-24 13:03 OP:opt  STATUS:               ID:20130607181541     I
 OLDACT:UP  21-12-23 17:41 OP:opt  STATUS:               ID:20130607181541     3
 STAT COM NTLO IPHASE   W HHMM SS.SSS   PAR1  PAR2 AGA OPE  AIN  RES W  DIS CAZ7
 WEIJ HHZ GH   IP         1817 21.350              BER opt113.0 0.4510 30.3  48 
 WEIJ HHN GH   ISg        1817 24.150              BER opt113.0-0.6510 30.3  48 
 WEIJ HHE GH    IAML      1817 25.310 1935.0  0.36 BER opt     -0.47   30.3  48 
 KUKU HHZ GH   IP         1817 29.570              BER opt 92.0-0.5310 89.2  12 
 KUKU HHN GH   ISg        1817 41.520              BER opt 92.0 1.0910 89.2  12 
 KUKU HHE GH    IAML      1817 42.380 2935.5  0.12 BER opt      0.29   89.2  12 
 MRON HHZ GH   IP         1817 41.140              BER opt 91.0 0.7410  154 320 
 MRON HHN GH   ISg        1817 57.110              BER opt 91.0-0.8410  154 320 
 MRON HHN GH    IAML      1818 02.240  433.5  0.10 BER opt     -0.16    154 320 
 KLEF HHZ GH   IP         1817 43.250              BER opt 76.0 0.0310  172  39 
 KLEF HHN GH   ISg        1818 02.520              BER opt 90.0-0.2810  172  39 
 KLEF HHE GH    IAML      1818 04.280 1173.0  0.18 BER opt      0.36    172  39 
                                                                                
 2013 0616 0751 34.2 L   5.437  -0.388 10.1  BER  3 .20 2.8LBER                1
 GAP=345   BER 0.620      16.0    21.8 10.5 -0.3276E+03 -0.2040E+03  0.1498E+03E
 2013-06-16-0749-38S.NSN___015                                                 6
 OLDACT:REG 21-08-27 22:14 OP:opt  STATUS:               ID:20130616074937     3
 OLDACT:UP  21-08-29 20:07 OP:opt  STATUS:               ID:20130616074937     3
 OLDACT:UP  21-08-29 20:12 OP:opt  STATUS:               ID:20130616074937     3
 OLDACT:UP  21-12-03 13:20 OP:opt  STATUS:               ID:20130616074937     3
 OLDACT:UP  21-12-12 11:19 OP:opt  STATUS:               ID:20130616074937     3
 ACTION:UP  21-12-24 13:03 OP:opt  STATUS:               ID:20130616074937     I
 OLDACT:UP  21-12-23 17:41 OP:opt  STATUS:               ID:20130616074937     3
 STAT COM NTLO IPHASE   W HHMM SS.SSS   PAR1  PAR2 AGA OPE  AIN  RES W  DIS CAZ7
 WEIJ HHZ GH   IP         0751 37.800              BER opt120.0 0.2510 17.8  20 
 WEIJ HHE GH   ISg        0751 39.630              BER opt120.0-0.2910 17.8  20 
 WEIJ HHN GH    IAML      0751 40.050 2474.5  0.14 BER opt      0.02   17.8  20 
 AKOS HHZ GH   IP         0751 52.090              BER opt 95.0 0.1310  108  28 
 AKOS HHN GH    IAML      0751 53.890  239.0  0.12 BER opt     -0.03    108  28 
 AKOS HHE GH   ISg        0752 04.600              BER opt 95.0 0.1910  108  28 
 KLEF HHZ GH   IP         0751 59.910              BER opt 76.0-0.3110  159  35 
 KLEF HHN GH   ISg        0752 18.760              BER opt 93.0 0.0410  159  35 
                                                                                
 2013 0620 1715 15.5 L   5.600  -0.309 10.2  BER  4 .00 3.3LBER                1
 GAP=208   BER 0.300       2.3     1.1  2.8 -0.7082E+00  0.5558E+00 -0.5545E+01E
 2013-06-20-1713-38S.NSN___015                                                 6
 OLDACT:REG 21-09-15 20:31 OP:opt  STATUS:               ID:20130620171337     3
 OLDACT:UP  21-09-15 20:33 OP:opt  STATUS:               ID:20130620171337     3
 OLDACT:UP  21-12-03 13:20 OP:opt  STATUS:               ID:20130620171337     3
 OLDACT:UP  21-12-12 11:20 OP:opt  STATUS:               ID:20130620171337     3
 ACTION:UP  21-12-24 13:03 OP:opt  STATUS:               ID:20130620171337     I
 OLDACT:UP  21-12-23 17:41 OP:opt  STATUS:               ID:20130620171337     3
 STAT COM NTLO IPHASE   W HHMM SS.SSS   PAR1  PAR2 AGA OPE  AIN  RES W  DIS CAZ7
 WEIJ HHZ GH   IP         1715 17.340              BER opt164.0 0.0410 3.02 244 
 WEIJ HHN GH   ISg        1715 18.530              BER opt164.0-0.0210 3.02 244 
 WEIJ HHE GH    IAML      1715 18.80012611.0  0.12 BER opt     -0.17   3.02 244 
 KUKU HHZ GH   IP         1715 26.410              BER opt 99.0-0.0510 65.8 354 
 KUKU HHE GH   ISg        1715 34.150              BER opt 99.0 0.0210 65.8 354 
 KUKU HHE GH    IAML      1715 34.690 3747.5  0.12 BER opt      0.29   65.8 354 
 KLEF HHN GH   ISg        1715 54.570              BER opt 94.0 0.0110  139  36 
 KLEF HHE GH    IAML      1715 55.690 1179.5  0.22 BER opt      0.29    139  36 
 MRON HHN GH   ISg        1715 59.530              BER opt 93.0 0.0110  157 307 
 MRON HHE GH    IAML      1716 00.200  184.5  0.28 BER opt     -0.43    157 307 
                                                                                
 2013 0625 1521 15.9 L   5.390  -0.580 7.60  BER  5 .50 3.5LBER                1
 GAP=270   BER  1.39       8.9     4.3 18.4  0.6353E+01  0.3798E+02  0.5791E+02E
 2013-06-25-1519-36S.NSN___015                                                 6
 OLDACT:REG 21-08-27 22:13 OP:opt  STATUS:               ID:20130625151936     3
 OLDACT:UP  21-08-28 14:16 OP:opt  STATUS:               ID:20130625151936     3
 OLDACT:UP  21-08-28 14:16 OP:opt  STATUS:               ID:20130625151936     3
 OLDACT:UP  21-08-29 20:15 OP:opt  STATUS:               ID:20130625151936     3
 OLDACT:UP  21-12-03 13:20 OP:opt  STATUS:               ID:20130625151936     3
 OLDACT:UP  21-12-12 11:20 OP:opt  STATUS:               ID:20130625151936     3
 ACTION:UP  21-12-24 13:03 OP:opt  STATUS:               ID:20130625151936     I
 OLDACT:UP  21-12-23 17:41 OP:opt  STATUS:               ID:20130625151936     3
 STAT COM NTLO IPHASE   W HHMM SS.SSS   PAR1  PAR2 AGA OPE  AIN  RES W  DIS CAZ7
 WEIJ HHZ GH   IP         1521 21.930              BER opt102.0 0.1410 35.1  51 
 WEIJ HHN GH   ISg        1521 25.660              BER opt102.0-0.2710 35.1  51 
 WEIJ HHN GH    IAML      1521 25.970 2334.0  0.50 BER opt     -0.40   35.1  51 
 KUKU HHZ GH   IP         1521 30.730              BER opt 94.0-0.2810 91.8  15 
 KUKU HHN GH    IAML      1521 32.470  889.0  0.12 BER opt     -0.26   91.8  15 
 KUKU HHE GH   ISg        1521 40.760              BER opt 94.0-0.8510 91.8  15 
 AKOS HHZ GH   IP         1521 36.070              BER opt 93.0-0.1310  123  36 
 AKOS HHN GH   ISg        1521 51.560              BER opt 93.0 1.1310  123  36 
 AKOS HHN GH    IAML      1521 53.060 1436.5  0.10 BER opt      0.15    123  36 
 MRON HHZ GH   IP         1521 41.320              BER opt 76.0 0.4310  152 321 
 MRON HHN GH    IAML      1521 43.370  670.5  0.10 BER opt     -0.02    152 321 
 MRON HHE GH   ISg        1521 58.470              BER opt 93.0 0.0710  152 321 
 KLEF HHZ GH   IP         1521 44.220              BER opt 76.0-0.5210  176  40 
 KLEF HHE GH   ISg        1522 05.430              BER opt 92.0 0.2810  176  40 
 KLEF HHN GH    IAML      1522 06.070 1930.0  0.28 BER opt      0.55    176  40 
                                                                                
 2013 0710 1835 37.9 L   5.410  -0.536 15.0  BER  5 .50 3.1LBER                1
 GAP=271   BER  1.39       9.2     4.6 14.8  0.9595E+01  0.3446E+02  0.3973E+02E
 2013-07-10-1835-18S.NSN___015                                                 6
 OLDACT:REG 21-09-15 20:35 OP:opt  STATUS:               ID:20130710183518     3
 OLDACT:UP  21-09-15 20:37 OP:opt  STATUS:               ID:20130710183518     3
 OLDACT:UP  21-12-03 13:21 OP:opt  STATUS:               ID:20130710183518     3
 OLDACT:UP  21-12-03 13:22 OP:opt  STATUS:               ID:20130710183518     3
 OLDACT:UP  21-12-12 11:20 OP:opt  STATUS:               ID:20130710183518     3
 ACTION:UP  21-12-24 13:03 OP:opt  STATUS:               ID:20130710183518     I
 OLDACT:UP  21-12-23 17:42 OP:opt  STATUS:               ID:20130710183518     3
 STAT COM NTLO IPHASE   W HHMM SS.SSS   PAR1  PAR2 AGA OPE  AIN  RES W  DIS CAZ7
 WEIJ HHZ GH   IP         1835 43.740              BER opt113.0 0.3810 29.9  49 
 WEIJ HHN GH   ISg        1835 46.530              BER opt113.0-0.6810 29.9  49 
 WEIJ HHE GH    IAML      1835 47.790 2251.5  0.34 BER opt     -0.09   29.9  49 
 KUKU HHZ GH   IP         1835 51.850              BER opt 92.0-0.6710 88.5  12 
 KUKU HHN GH   ISg        1836 03.570              BER opt 92.0 0.7910 88.5  12 
 KUKU HHN GH    IAML      1836 04.760  474.0  0.20 BER opt     -0.19   88.5  12 
 AKOS HHZ GH   IP         1835 57.540              BER opt 91.0 0.2010  119  34 
 AKOS HHN GH    IAML      1836 07.570  505.0  0.10 BER opt      0.04    119  34 
 MRON HHZ GH   IP         1836 03.480              BER opt 91.0 0.6310  154 319 
 MRON HHN GH   ISg        1836 19.710              BER opt 91.0-0.6310  154 319 
 MRON HHE GH    IAML      1836 23.990  187.0  0.22 BER opt     -0.21    154 319 
 KLEF HHZ GH   IP         1836 05.640              BER opt 76.0-0.0310  172  39 
 KLEF HHN GH   ISg        1836 25.200              BER opt 90.0 0.0110  172  39 
 KLEF HHE GH    IAML      1836 27.150  705.5  0.16 BER opt      0.46    172  39 
                                                                                
 2013 0725 1447 04.8 L   5.449  -0.554 13.1  BER  3 .10 3.2LBER                1
 GAP=261   BER 0.430       3.7     1.4  3.6  0.1308E+01  0.2571E+01  0.1149E+01E
 2013-07-25-1445-19S.NSN___015                                                 6
 OLDACT:REG 21-09-15 20:38 OP:opt  STATUS:               ID:20130725144518     3
 OLDACT:UP  21-09-15 20:40 OP:opt  STATUS:               ID:20130725144518     3
 OLDACT:UP  21-12-03 13:23 OP:opt  STATUS:               ID:20130725144518     3
 OLDACT:UP  21-12-12 11:20 OP:opt  STATUS:               ID:20130725144518     3
 ACTION:UP  21-12-24 13:04 OP:opt  STATUS:               ID:20130725144518     I
 OLDACT:UP  21-12-23 17:42 OP:opt  STATUS:               ID:20130725144518     3
 STAT COM NTLO IPHASE   W HHMM SS.SSS   PAR1  PAR2 AGA OPE  AIN  RES W  DIS CAZ7
 WEIJ HHZ GH   IP         1447 09.970              BER opt114.0-0.0210 28.9  58 
 WEIJ HHN GH   ISg        1447 13.670              BER opt114.0 0.0210 28.9  58 
 WEIJ HHE GH    IAML      1447 15.800 1475.0  0.24 BER opt     -0.40   28.9  58 
 MRON HHZ GH   IP         1447 29.250              BER opt 76.0 0.2010  149 319 
 MRON HHE GH   ISg        1447 46.410              BER opt 95.0-0.1110  149 319 
 MRON HHN GH    IAML      1447 47.560  306.0  0.16 BER opt     -0.12    149 319 
 KLEF HHZ GH   IP         1447 32.120              BER opt 76.0-0.1910  169  40 
 KLEF HHN GH   ISg        1447 52.310              BER opt 94.0 0.1010  169  40 
 KLEF HHE GH    IAML      1447 54.520 1090.0  0.22 BER opt      0.53    169  40 
                                                                                
 2013 0729 2015 02.3 L   5.495  -0.325 17.9  BER  5 .30 3.5LBER                1
 GAP=277   BER 0.700       5.0     1.9  3.2 -0.2680E+01  0.1696E+00 -0.6307E+01E
 2013-07-29-2013-30S.NSN___015                                                 6
 OLDACT:REG 21-08-27 22:05 OP:opt  STATUS:               ID:20130729201329     3
 OLDACT:UP  21-08-28 14:27 OP:opt  STATUS:               ID:20130729201329     3
 OLDACT:UP  21-08-29 20:45 OP:opt  STATUS:               ID:20130729201329     3
 OLDACT:UP  21-08-29 20:50 OP:opt  STATUS:               ID:20130729201329     3
 OLDACT:UP  21-08-29 20:51 OP:opt  STATUS:               ID:20130729201329     3
 OLDACT:UP  21-08-29 20:51 OP:opt  STATUS:               ID:20130729201329     3
 OLDACT:UP  21-12-03 13:23 OP:opt  STATUS:               ID:20130729201329     3
 OLDACT:UP  21-12-12 11:20 OP:opt  STATUS:               ID:20130729201329     3
 ACTION:UP  21-12-24 13:04 OP:opt  STATUS:               ID:20130729201329     I
 OLDACT:UP  21-12-23 17:42 OP:opt  STATUS:               ID:20130729201329     3
 STAT COM NTLO IPHASE   W HHMM SS.SSS   PAR1  PAR2 AGA OPE  AIN  RES W  DIS CAZ7
 WEIJ HHZ GH   IP         2015 05.960              BER opt149.0 0.2610 10.4 355 
 WEIJ HHN GH   ISg        2015 07.850              BER opt149.0-0.2410 10.4 355 
 WEIJ HHE GH    IAML      2015 08.670 3868.5  0.20 BER opt     -0.54   10.4 355 
 KUKU HHZ GH   IP         2015 15.580              BER opt 98.0 0.3710 77.3 356 
 KUKU HHN GH    IAML      2015 15.650  737.0  0.20 BER opt     -0.50   77.3 356 
 AKOS HHZ GH   IP         2015 18.640              BER opt 95.0 0.0110 99.0  26 
 AKOS HHE GH   ISg        2015 30.200              BER opt 95.0 0.1310 99.0  26 
 AKOS HHN GH   ISg        2015 30.380              BER opt 95.0 0.3110 99.0  26 
 AKOS HHN GH    IAML      2015 30.530 1805.5  0.10 BER opt      0.04   99.0  26 
 KLEF HHZ GH   IP         2015 26.410              BER opt 76.0-0.2610  150  34 
 KLEF HHN GH   ISg        2015 43.440              BER opt 92.0-0.4010  150  34 
 KLEF HHN GH    IAML      2015 45.410 3708.5  0.14 BER opt      0.64    150  34 
 MRON HHE GH   ISg        2015 47.230              BER opt 92.0-0.1810  163 311 
 MRON HHT GH   ISg        2015 47.420              BER opt 92.0 0.0110  163 311 
 MRON HHN GH    IAML      2015 48.440 1731.5  0.14 BER opt      0.38    163 311 
                                                                                
