 2013 0802 2035 17.5 L   5.528  -0.299 14.4  BER  3 .20 3.0LBER                1
 GAP=296   BER 0.590       4.6     4.0  4.1  0.1710E+01 -0.9222E+01 -0.1083E+02E
 2013-08-02-2033-41S.NSN___015                                                 6
 OLDACT:REG 21-09-15 20:51 OP:opt  STATUS:               ID:20130802203340     3
 OLDACT:UP  21-09-15 20:54 OP:opt  STATUS:               ID:20130802203340     3
 OLDACT:UP  21-12-03 13:24 OP:opt  STATUS:               ID:20130802203340     3
 OLDACT:UP  21-12-12 11:21 OP:opt  STATUS:               ID:20130802203340     3
 ACTION:UP  21-12-24 13:04 OP:opt  STATUS:               ID:20130802203340     I
 OLDACT:UP  21-12-23 17:42 OP:opt  STATUS:               ID:20130802203340     3
 STAT COM NTLO IPHASE   W HHMM SS.SSS   PAR1  PAR2 AGA OPE  AIN  RES W  DIS CAZ7
 WEIJ HHZ GH   IP         2035 20.400              BER opt151.0 0.1810 7.71 330 
 WEIJ HHN GH   ISg        2035 22.010              BER opt151.0-0.1110 7.71 330 
 WEIJ HHE GH    IAML      2035 22.240 2424.0  0.18 BER opt     -0.34   7.71 330 
 KUKU HHZ GH   IP         2035 30.000              BER opt 91.0 0.1710 73.8 354 
 KUKU HHE GH   ISg        2035 38.360              BER opt 91.0-0.1010 73.8 354 
 KUKU HHE GH    IAML      2035 39.280 1141.5  0.12 BER opt      0.18   73.8 354 
 KLEF HHZ GH   IP         2035 40.820              BER opt 90.0-0.3610  145  34 
 KLEF HHE GH   ISg        2035 57.960              BER opt 90.0 0.2110  145  34 
 KLEF HHN GH    IAML      2036 00.240  368.5  0.10 BER opt      0.14    145  34 
                                                                                
 2013 0804 1713 13.8 L   7.103  -0.293 21.0  BER  5 .20 3.6LBER                1
 GAP=243   BER 0.640       3.7     2.0 15.1 -0.1614E+01  0.1641E+02 -0.3133E+02E
 2013-08-04-1711-37S.NSN___015                                                 6
 OLDACT:REG 21-08-27 22:04 OP:opt  STATUS:               ID:20130804171137     3
 OLDACT:UP  21-08-28 14:30 OP:opt  STATUS:               ID:20130804171137     3
 OLDACT:UP  21-08-28 14:30 OP:opt  STATUS:               ID:20130804171137     3
 OLDACT:UP  21-08-29 20:52 OP:opt  STATUS:               ID:20130804171137     3
 OLDACT:UP  21-08-29 20:56 OP:opt  STATUS:               ID:20130804171137     3
 OLDACT:UP  21-12-03 13:24 OP:opt  STATUS:               ID:20130804171137     3
 OLDACT:UP  21-12-12 11:21 OP:opt  STATUS:               ID:20130804171137     3
 ACTION:UP  21-12-24 13:04 OP:opt  STATUS:               ID:20130804171137     I
 OLDACT:UP  21-12-23 17:43 OP:opt  STATUS:               ID:20130804171137     3
 STAT COM NTLO IPHASE   W HHMM SS.SSS   PAR1  PAR2 AGA OPE  AIN  RES W  DIS CAZ7
 KLEF HHZ GH   IP         1713 30.170              BER opt 98.0 0.2410 97.4 124 
 KLEF HHN GH   ISg        1713 40.810              BER opt 98.0-0.4410 97.4 124 
 KLEF HHE GH    IAML      1713 47.520 1568.0  0.20 BER opt     -0.10   97.4 124 
 AKOS HHZ GH   IP         1713 30.200              BER opt 98.0 0.2610 97.5 156 
 AKOS HHN GH   ISg        1713 41.500              BER opt 98.0 0.2510 97.5 156 
 AKOS HHN GH    IAML      1713 42.310 2162.0  0.10 BER opt      0.04   97.5 156 
 KUKU HHN GH   IP         1713 30.480              BER opt 76.0-0.0110  101 185 
 KUKU HHE GH   ISg        1713 41.920              BER opt 98.0-0.2710  101 185 
 KUKU HHN GH    IAML      1713 48.450 2358.5  0.12 BER opt      0.10    101 185 
 MRON HHZ GH   IP         1713 37.110              BER opt 76.0-0.1310  145 241 
 MRON HHE GH   ISg        1713 53.980              BER opt 94.0 0.0110  145 241 
 MRON HHN GH    IAML      1713 55.620 1525.0  0.10 BER opt      0.16    145 241 
 WEIJ HHE GH   ISg        1714 00.140              BER opt 93.0 0.0810  168 182 
 WEIJ HHN GH    IAML      1714 02.340  494.0  0.44 BER opt     -0.21    168 182 
                                                                                
 2013 0817 1211 06.8 L   7.010  -0.713 15.0  BER  3 3.4 2.7LBER                1
 GAP=236   BER  8.03     120.4    40.7295.9 -0.1340E+04  0.8639E+04 -0.4724E+04E
 2013-08-17-1209-21S.NSN___015                                                 6
 OLDACT:REG 21-09-15 20:55 OP:opt  STATUS:               ID:20130817120920     3
 OLDACT:UP  21-09-16 23:46 OP:opt  STATUS:               ID:20130817120920     3
 OLDACT:UP  21-12-03 13:24 OP:opt  STATUS:               ID:20130817120920     3
 OLDACT:UP  21-12-12 11:21 OP:opt  STATUS:               ID:20130817120920     3
 ACTION:UP  21-12-24 13:04 OP:opt  STATUS:               ID:20130817120920     I
 OLDACT:UP  21-12-23 17:43 OP:opt  STATUS:               ID:20130817120920     3
 STAT COM NTLO IPHASE   W HHMM SS.SSS   PAR1  PAR2 AGA OPE  AIN  RES W  DIS CAZ7
 KUKU HHE GH   IP         1211 25.630              BER opt 91.0 2.6910 98.1 157 
 MRON HHZ GH   IP         1211 20.850              BER opt 91.0-2.4410  100 233 
 KLEF HHE GH   IP         1211 32.690              BER opt 91.0 3.9210  135 109 
 KLEF HHZ GH   ISg        1211 40.010              BER opt 91.0-4.1710  135 109 
 KLEF HHE GH    IAML      1211 41.250  143.0  1.12 BER opt      0.00    135 109 
                                                                                
 2013 0823 1257 28.7 L   5.431  -0.568 7.90  BER  5 .30 3.2LBER                1
 GAP=264   BER 0.860       6.4     2.6 10.0  0.1701E+01  0.1486E+02  0.1619E+02E
 2013-08-23-1255-54S.NSN___015                                                 6
 OLDACT:REG 21-08-27 22:02 OP:opt  STATUS:               ID:20130823125553     3
 OLDACT:UP  21-08-28 14:32 OP:opt  STATUS:               ID:20130823125553     3
 OLDACT:UP  21-08-28 14:32 OP:opt  STATUS:               ID:20130823125553     3
 OLDACT:UP  21-08-29 21:05 OP:opt  STATUS:               ID:20130823125553     3
 OLDACT:UP  21-12-03 13:24 OP:opt  STATUS:               ID:20130823125553     3
 OLDACT:UP  21-12-12 11:21 OP:opt  STATUS:               ID:20130823125553     3
 ACTION:UP  21-12-24 13:04 OP:opt  STATUS:               ID:20130823125553     I
 OLDACT:UP  21-12-23 17:43 OP:opt  STATUS:               ID:20130823125553     3
 STAT COM NTLO IPHASE   W HHMM SS.SSS   PAR1  PAR2 AGA OPE  AIN  RES W  DIS CAZ7
 WEIJ HHZ GH   IP         1257 34.050              BER opt104.0-0.0210 31.3  56 
 WEIJ HHN GH   ISg        1257 37.780              BER opt104.0-0.0110 31.3  56 
 WEIJ HHN GH    IAML      1257 38.340 1658.5  0.14 BER opt     -0.38   31.3  56 
 KUKU HHN GH   IP         1257 42.990              BER opt 95.0-0.1310 87.0  15 
 KUKU HHN GH    IAML      1257 44.840 1071.5  0.18 BER opt      0.01   87.0  15 
 AKOS HHZ GH   IP         1257 48.400              BER opt 93.0 0.0610  119  36 
 AKOS HHN GH   ISg        1258 02.740              BER opt 93.0 0.6810  119  36 
 AKOS HHN GH    IAML      1258 05.740  742.5  0.18 BER opt      0.06    119  36 
 MRON HHZ GH   IP         1257 53.590              BER opt 76.0 0.2610  149 320 
 MRON HHZ GH   EP         1257 53.590              BER opt 76.0 0.2610  149 320 
 MRON HHN GH   ISg        1258 10.220              BER opt 93.0-0.3310  149 320 
 MRON HHE GH    IAML      1258 14.720  306.5  0.10 BER opt     -0.16    149 320 
 KLEF HHZ GH   IP         1257 56.550              BER opt 76.0-0.3610  172  40 
 KLEF HHN GH   ISg        1258 16.420              BER opt 92.0-0.4010  172  40 
 KLEF HHN GH    IAML      1258 20.870 1009.0  0.14 BER opt      0.47    172  40 
                                                                                
 2013 0824 1925 10.4 L   5.527  -0.300 14.3  BER  4 .20 3.1LBER                1
 GAP=275   BER 0.470       3.2     1.6  2.3 -0.1230E+01  0.3651E-01 -0.3569E+01E
 2013-08-24-1923-55S.NSN___015                                                 6
 OLDACT:REG 21-08-27 21:45 OP:opt  STATUS:               ID:20130824192355     3
 OLDACT:UP  21-08-28 14:38 OP:opt  STATUS:               ID:20130824192355     3
 OLDACT:UP  21-08-29 21:09 OP:opt  STATUS:               ID:20130824192355     3
 OLDACT:UP  21-08-29 21:09 OP:opt  STATUS:               ID:20130824192355     3
 OLDACT:UP  21-12-03 13:24 OP:opt  STATUS:               ID:20130824192355     3
 OLDACT:UP  21-12-12 11:21 OP:opt  STATUS:               ID:20130824192355     3
 ACTION:UP  21-12-24 13:05 OP:opt  STATUS:               ID:20130824192355     I
 OLDACT:UP  21-12-23 17:43 OP:opt  STATUS:               ID:20130824192355     3
 STAT COM NTLO IPHASE   W HHMM SS.SSS   PAR1  PAR2 AGA OPE  AIN  RES W  DIS CAZ7
 WEIJ HHZ GH   IP         1925 13.300              BER opt151.0 0.1610 7.72 332 
 WEIJ HHN GH   ISg        1925 14.930              BER opt151.0-0.1010 7.72 332 
 WEIJ HHN GH    IAML      1925 15.460 5962.0  0.24 BER opt     -0.04   7.72 332 
 KUKU HHZ GH   IP         1925 22.920              BER opt 91.0 0.1410 74.0 354 
 KUKU HHE GH   ISg        1925 31.410              BER opt 91.0-0.0110 74.0 354 
 KUKU HHN GH    IAML      1925 36.060  671.0  0.12 BER opt     -0.14   74.0 354 
 AKOS HHN GH    IAML      1925 28.010  395.0  0.18 BER opt     -0.21   94.5  26 
 KLEF HHZ GH   IP         1925 33.830              BER opt 90.0-0.3210  146  34 
 KLEF HHN GH   ISg        1925 50.880              BER opt 90.0 0.1410  146  34 
 KLEF HHN GH    IAML      1925 53.420  870.0  0.12 BER opt      0.43    146  34 
 MRON HHZ GH   IP         1925 37.000      D       BER opt 90.0 0.0710  163 310 
 MRON HHN GH   ISg        1925 55.390      D       BER opt 90.0-0.0910  163 310 
 MRON HHE GH    IAML      1925 56.810  248.5  0.14 BER opt     -0.03    163 310 
                                                                                
 2013 0831 1232 09.5 L   5.393  -0.551 15.0  BER  5 .20 3.6LBER                1
 GAP=272   BER 0.680       4.3     1.9  5.1 -0.6294E+00  0.3729E+01  0.1164E+01E
 2013-08-31-1230-35S.NSN___015                                                 6
 OLDACT:REG 21-08-27 21:43 OP:opt  STATUS:               ID:20130831123034     3
 OLDACT:UP  21-08-28 14:40 OP:opt  STATUS:               ID:20130831123034     3
 OLDACT:UP  21-08-28 14:40 OP:opt  STATUS:               ID:20130831123034     3
 OLDACT:UP  21-08-28 14:41 OP:opt  STATUS:               ID:20130831123034     3
 OLDACT:UP  21-08-28 14:41 OP:opt  STATUS:               ID:20130831123034     3
 OLDACT:UP  21-08-29 21:12 OP:opt  STATUS:               ID:20130831123034     3
 OLDACT:UP  21-08-29 21:13 OP:opt  STATUS:               ID:20130831123034     3
 OLDACT:UP  21-12-03 13:24 OP:opt  STATUS:               ID:20130831123034     3
 OLDACT:UP  21-12-12 11:22 OP:opt  STATUS:               ID:20130831123034     3
 ACTION:UP  21-12-24 13:05 OP:opt  STATUS:               ID:20130831123034     I
 OLDACT:UP  21-12-23 17:44 OP:opt  STATUS:               ID:20130831123034     3
 STAT COM NTLO IPHASE   W HHMM SS.SSS   PAR1  PAR2 AGA OPE  AIN  RES W  DIS CAZ7
 WEIJ HHZ GH   IP         1232 15.500              BER opt111.0 0.1210 32.4  48 
 WEIJ HHN GH   ISg        1232 19.040              BER opt111.0-0.4510 32.4  48 
 WEIJ HHN GH    IAML      1232 19.460 4395.5  0.18 BER opt     -0.23   32.4  48 
 WEIJ HHE GH    IAML      1232 19.530 3235.0  0.16 BER opt     -0.36   32.4  48 
 KUKU HHZ GH   IP         1232 24.220              BER opt 92.0-0.2910 90.6  13 
 AKOS HHZ GH   IP         1232 29.560              BER opt 91.0 0.1810  121  34 
 AKOS HHE GH    IAML      1232 30.990 1132.0  0.10 BER opt     -0.06    121  34 
 AKOS HHN GH   ISg        1232 43.770              BER opt 91.0 0.4810  121  34 
 AKOS HHN GH    IAML      1232 51.950 1547.5  0.10 BER opt      0.08    121  34 
 MRON HHZ GH   IP         1232 34.700              BER opt 91.0 0.1510  154 320 
 MRON HHN GH   ISg        1232 51.950              BER opt 91.0-0.1210  154 320 
 MRON HHN GH    IAML      1232 56.210  821.0  0.10 BER opt     -0.02    154 320 
 KLEF HHZ GH   IP         1232 37.710              BER opt 76.0 0.0110  174  39 
 KLEF HHT GH   ISg        1232 57.330              BER opt 90.0-0.1810  174  39 
 KLEF HHE GH   ISg        1232 57.550              BER opt 90.0 0.0410  174  39 
 KLEF HHN GH   ISg        1232 57.580              BER opt 90.0 0.0710  174  39 
 KLEF HHN GH    IAML      1232 59.560 2743.0  0.14 BER opt      0.60    174  39 
                                                                                
 2013 0918 1235 46.5 L   5.317  -0.511 14.3  BER  5 .50 3.6LBER                1
 GAP=285   BER  1.24       8.9     6.5 11.6 -0.2471E+02  0.2579E+02  0.1195E+02E
 2013-09-18-1234-08S.NSN___015                                                 6
 OLDACT:REG 21-08-27 21:42 OP:opt  STATUS:               ID:20130918123407     3
 OLDACT:UP  21-08-28 14:44 OP:opt  STATUS:               ID:20130918123407     3
 OLDACT:UP  21-08-28 14:44 OP:opt  STATUS:               ID:20130918123407     3
 OLDACT:UP  21-08-29 21:14 OP:opt  STATUS:               ID:20130918123407     3
 OLDACT:UP  21-08-29 21:14 OP:opt  STATUS:               ID:20130918123407     3
 OLDACT:UP  21-08-29 21:15 OP:opt  STATUS:               ID:20130918123407     3
 OLDACT:UP  21-08-29 21:17 OP:opt  STATUS:               ID:20130918123407     3
 OLDACT:UP  21-12-03 13:25 OP:opt  STATUS:               ID:20130918123407     3
 OLDACT:UP  21-12-12 11:22 OP:opt  STATUS:               ID:20130918123407     3
 ACTION:UP  21-12-24 13:05 OP:opt  STATUS:               ID:20130918123407     I
 OLDACT:UP  21-12-23 17:44 OP:opt  STATUS:               ID:20130918123407     3
 STAT COM NTLO IPHASE   W HHMM SS.SSS   PAR1  PAR2 AGA OPE  AIN  RES W  DIS CAZ7
 WEIJ HHZ GH   IP         1235 53.390              BER opt107.0 0.5110 35.9  33 
 WEIJ HHN GH   ISg        1235 57.140              BER opt107.0-0.1910 35.9  33 
 WEIJ HHN GH    IAML      1235 57.530 3674.5  0.22 BER opt     -0.31   35.9  33 
 KUKU HHZ GH   IP         1236 02.100              BER opt 90.0-0.6010 98.1   9 
 KUKU HHN GH    IAML      1236 02.820 1433.0  0.18 BER opt     -0.15   98.1   9 
 KUKU HHZ GH   ISg        1236 14.760              BER opt 90.0 0.7410 98.1   9 
 AKOS HHZ GH   IP         1236 07.610              BER opt 90.0 0.4710  126  31 
 AKOS HHN GH   ISg        1236 21.650              BER opt 90.0 0.0910  126  31 
 AKOS HHE GH    IAML      1236 28.530 1085.0  0.24 BER opt     -0.10    126  31 
 MRON HHZ GH   IP         1236 12.660              BER opt 90.0-0.3810  163 321 
 MRON HHN GH    IAML      1236 34.170  720.5  0.28 BER opt     -0.09    163 321 
 KLEF HHZ GH   IP         1236 15.620              BER opt 76.0 0.2810  178  36 
 KLEF HHE GH   ISg        1236 34.900              BER opt 90.0-0.6810  178  36 
 KLEF HHN GH   ISg        1236 35.350              BER opt 90.0-0.2310  178  36 
 KLEF HHN GH    IAML      1236 39.150 3136.5  0.14 BER opt      0.62    178  36 
                                                                                
 2013 0919 1230 53.1 L   6.420  -1.018 12.8  BER  4 .00 3.1LBER                1
 GAP=166   BER 0.340       3.1     1.7  5.7  0.1105E+01 -0.5710E+01  0.2590E+01E
 2013-09-19-1229-20S.NSN___015                                                 6
 OLDACT:REG 21-09-15 21:06 OP:opt  STATUS:               ID:20130919122920     3
 OLDACT:UP  21-09-15 21:10 OP:opt  STATUS:               ID:20130919122920     3
 OLDACT:UP  21-12-03 13:25 OP:opt  STATUS:               ID:20130919122920     3
 OLDACT:UP  21-12-12 11:22 OP:opt  STATUS:               ID:20130919122920     3
 ACTION:UP  21-12-24 13:05 OP:opt  STATUS:               ID:20130919122920     I
 OLDACT:UP  21-12-23 17:44 OP:opt  STATUS:               ID:20130919122920     3
 STAT COM NTLO IPHASE   W HHMM SS.SSS   PAR1  PAR2 AGA OPE  AIN  RES W  DIS CAZ7
 MRON HHZ GH   IP         1231 01.090              BER opt105.0 0.0010 46.7 276 
 MRON HHN GH    IAML      1231 07.770 1024.5  0.12 BER opt     -0.19   46.7 276 
 KUKU HHZ GH   IP         1231 05.800              BER opt 99.0-0.0010 76.1 109 
 KUKU HHN GH    IAML      1231 19.100  831.0  0.12 BER opt     -0.00   76.1 109 
 WEIJ HHZ GH   IP         1231 12.680              BER opt 76.0 0.0010  119 140 
 KLEF HHZ GH   IP         1231 19.600              BER opt 76.0-0.0010  163  82 
 KLEF HHN GH    IAML      1231 44.000  388.5  0.10 BER opt      0.20    163  82 
                                                                                
 2013 0922 1207 35.5 L   5.461  -0.571 10.1  BER  3 .20 3.0LBER                1
 GAP=314   BER 0.590       4.0     4.6  7.3  0.4335E+01  0.1770E+02  0.9633E+00E
 2013-09-22-1206-07S.NSN___015                                                 6
 OLDACT:REG 21-09-15 21:12 OP:opt  STATUS:               ID:20130922120606     3
 OLDACT:UP  21-09-15 21:16 OP:opt  STATUS:               ID:20130922120606     3
 OLDACT:UP  21-12-03 13:25 OP:opt  STATUS:               ID:20130922120606     3
 OLDACT:UP  21-12-12 11:30 OP:opt  STATUS:               ID:20130922120606     3
 ACTION:UP  21-12-24 13:05 OP:opt  STATUS:               ID:20130922120606     I
 OLDACT:UP  21-12-23 17:44 OP:opt  STATUS:               ID:20130922120606     3
 STAT COM NTLO IPHASE   W HHMM SS.SSS   PAR1  PAR2 AGA OPE  AIN  RES W  DIS CAZ7
 WEIJ HHN GH   IP         1207 40.780              BER opt109.0 0.0810 29.8  62 
 WEIJ HHN GH   ISg        1207 44.170              BER opt109.0-0.1710 29.8  62 
 WEIJ HHN GH    IAML      1207 44.720  786.5  0.22 BER opt     -0.49   29.8  62 
 KUKU HHN GH   IP         1207 49.600              BER opt 97.0 0.2010 83.8  15 
 KUKU HHE GH   ISg        1207 58.910              BER opt 97.0-0.2110 83.8  15 
 KUKU HHE GH    IAML      1208 05.270 1293.0  0.12 BER opt      0.30   83.8  15 
 KLEF HHZ GH   IP         1208 03.000              BER opt 76.0-0.2110  170  41 
 KLEF HHZ GH   ISg        1208 23.270              BER opt 93.0 0.3110  170  41 
 KLEF HHN GH    IAML      1208 26.620  320.5  0.12 BER opt      0.19    170  41 
                                                                                
