 2012 1009 1205 46.1 L   5.576  -0.289 12.9  BER  5 .30 3.0LBER                1
 GAP=242   BER 0.750       3.7     2.0  3.2 -0.2042E+01 -0.1085E+00 -0.5848E+01E
 2012-10-09-1204-13S.NSN___018                                                 6
 OLDACT:REG 21-08-27 22:51 OP:opt  STATUS:               ID:20121009120412     3
 OLDACT:UP  21-08-28 21:39 OP:opt  STATUS:               ID:20121009120412     3
 OLDACT:UP  21-08-28 21:40 OP:opt  STATUS:               ID:20121009120412     3
 OLDACT:UP  21-08-28 21:40 OP:opt  STATUS:               ID:20121009120412     3
 OLDACT:UP  21-08-28 21:40 OP:opt  STATUS:               ID:20121009120412     3
 OLDACT:UP  21-08-28 21:52 OP:opt  STATUS:               ID:20121009120412     3
 OLDACT:UP  21-08-30 20:48 OP:opt  STATUS:               ID:20121009120412     3
 OLDACT:UP  21-12-03 13:12 OP:opt  STATUS:               ID:20121009120412     3
 OLDACT:UP  21-12-12 11:05 OP:opt  STATUS:               ID:20121009120412     3
 OLDACT:UP  21-12-12 11:11 OP:opt  STATUS:               ID:20121009120412     3
 ACTION:UP  21-12-24 12:53 OP:opt  STATUS:               ID:20121009120412     I
 OLDACT:UP  21-12-23 17:34 OP:opt  STATUS:               ID:20121009120412     3
 STAT COM NTLO IPHASE   W HHMM SS.SSS   PAR1  PAR2 AGA OPE  AIN  RES W  DIS CAZ7
 WEIJ HHZ GH   IP         1205 48.500              BER opt159.0 0.0410 5.08 286 
 WEIJ HHN GH   ISg        1205 50.090              BER opt159.0 0.0110 5.08 286 
 WEIJ HHN GH    IAML      1205 50.530 5797.5  0.16 BER opt      0.01   5.08 286 
 SHAI HHZ GH   IP         1205 55.420              BER opt103.0-0.1410 55.8  44 
 SHAI HHN GH   ISg        1206 02.080              BER opt103.0-0.0710 55.8  44 
 SHAI HHN GH    IAML      1206 02.330 1090.5  0.18 BER opt      0.05   55.8  44 
 SHAI HHE GH    IAML      1206 02.480  840.0  0.24 BER opt     -0.07   55.8  44 
 KUKU HHZ GH   IP         1205 57.850              BER opt100.0 0.2110 68.7 353 
 KUKU HHN GH   ISg        1206 05.850              BER opt100.0 0.1610 68.7 353 
 KUKU HHN GH    IAML      1206 09.100  692.5  0.12 BER opt     -0.03   68.7 353 
 KLEF HHZ GH   IP         1206 08.730              BER opt 76.0-0.3510  140  35 
 KLEF HHE GH    IAML      1206 09.940  159.0  0.10 BER opt     -0.20    140  35 
 KLEF HHE GH   ISg        1206 25.670              BER opt 95.0 0.1610  140  35 
 MRON HHZ GH   IP         1206 12.790              BER opt 76.0 0.4910  161 308 
 MRON HHE GH   ISg        1206 30.640              BER opt 94.0-0.5010  161 308 
 MRON HHN GH    IAML      1206 32.270  359.5  0.16 BER opt      0.26    161 308 
                                                                                
 2012 1013 0307 56.2 L   5.354  -2.131 78.0  BER  6 .50 4.0LBER                1
 GAP=309   BER  1.41      12.8     8.2 28.4  0.2920E+02  0.5216E+02  0.2470E+03E
 2012-10-13-0306-37S.NSN___018                                                 6
 OLDACT:REG 21-09-09 14:28 OP:opt  STATUS:               ID:20121013030636     3
 OLDACT:UP  21-09-09 14:31 OP:opt  STATUS:               ID:20121013030636     3
 OLDACT:UP  21-09-09 14:32 OP:opt  STATUS:               ID:20121013030636     3
 OLDACT:UP  21-12-03 13:12 OP:opt  STATUS:               ID:20121013030636     3
 OLDACT:UP  21-12-12 10:43 OP:opt  STATUS:               ID:20121013030636     3
 OLDACT:UP  21-12-12 11:05 OP:opt  STATUS:               ID:20121013030636     3
 OLDACT:UP  21-12-12 11:10 OP:opt  STATUS:               ID:20121013030636     3
 OLDACT:UP  21-12-12 11:11 OP:opt  STATUS:               ID:20121013030636     3
 ACTION:UP  21-12-24 12:54 OP:opt  STATUS:               ID:20121013030636     I
 OLDACT:UP  21-12-23 17:34 OP:opt  STATUS:               ID:20121013030636     3
 STAT COM NTLO IPHASE   W HHMM SS.SSS   PAR1  PAR2 AGA OPE  AIN  RES W  DIS CAZ7
 MRON HHZ GH   IP         0308 21.010              BER opt114.0 0.1010  145  32 
 MRON HHN GH   ISg        0308 38.010              BER opt114.0-0.1610  145  32 
 WEIJ HHZ GH   IP         0308 28.470              BER opt106.0 0.0610  201  83 
 WEIJ HHN GH   ISg        0308 50.290              BER opt106.0-0.6310  201  83 
 WEIJ HHE GH    IAML      0308 52.610  661.5  0.10 BER opt     -0.22    201  83 
 KUKU HHZ GH   IP         0308 30.790              BER opt105.0 0.2910  216  65 
 KUKU HHN GH   ISg        0308 54.680              BER opt105.0 0.2010  216  65 
 KUKU HHN GH    IAML      0308 55.680  961.5  0.14 BER opt     -0.00    216  65 
 SHAI HHZ GH   IP         0308 35.770              BER opt102.0 0.3810  251  75 
 SHAI HHN GH   ISg        0309 02.980              BER opt102.0 0.1810  251  75 
 SHAI HHE GH    IAML      0309 04.970  329.0  0.22 BER opt     -0.34    251  75 
 AKOS HHN GH   ISg        0309 07.120              BER opt102.0 1.0810  265  67 
 AKOS HHE GH    IAML      0309 08.780  886.0  0.16 BER opt      0.14    265  67 
 KLEF HHZ GH   IP         0308 43.870              BER opt 99.0-0.7510  317  64 
 KLEF HHN GH   ISg        0309 17.710              BER opt 99.0-0.7710  317  64 
 KLEF HHE GH    IAML      0309 24.780 1200.5  0.14 BER opt      0.45    317  64 
                                                                                
 2012 1019 0838 27.0 L   5.493  -0.316 14.3  BER  5 .20 3.6LBER                1
 GAP=270   BER 0.530       4.9     1.7  2.5 -0.1586E+01 -0.3339E+00 -0.1229E+01E
 2012-10-19-0836-54S.NSN___018                                                 6
 OLDACT:REG 21-08-27 22:47 OP:opt  STATUS:               ID:20121019083653     3
 OLDACT:UP  21-08-28 12:59 OP:opt  STATUS:               ID:20121019083653     3
 OLDACT:UP  21-08-28 22:15 OP:opt  STATUS:               ID:20121019083653     3
 OLDACT:UP  21-12-03 13:12 OP:opt  STATUS:               ID:20121019083653     3
 OLDACT:UP  21-12-12 11:11 OP:opt  STATUS:               ID:20121019083653     3
 ACTION:UP  21-12-24 12:54 OP:opt  STATUS:               ID:20121019083653     I
 OLDACT:UP  21-12-23 17:34 OP:opt  STATUS:               ID:20121019083653     3
 STAT COM NTLO IPHASE   W HHMM SS.SSS   PAR1  PAR2 AGA OPE  AIN  RES W  DIS CAZ7
 WEIJ HHZ GH   IP         0838 30.070              BER opt142.0 0.1310 10.7 350 
 WEIJ HHN GH   ISg        0838 31.940              BER opt142.0-0.0710 10.7 350 
 WEIJ HHN GH    IAML      0838 32.11036010.0  0.18 BER opt      0.29   10.7 350 
 SHAI HHZ GH   IP         0838 37.780              BER opt 91.0-0.0610 64.6  40 
 SHAI HHN GH    IAML      0838 46.870 5250.5  0.14 BER opt      0.18   64.6  40 
 KUKU HHZ GH   IP         0838 39.990              BER opt 91.0 0.0910 77.5 356 
 AKOS HHN GH    IAML      0838 54.980   93.2  4.13 BER opt     -1.31   98.7  26 
 KLEF HHZ GH   IP         0838 51.010              BER opt 90.0-0.3410  150  34 
 KLEF HHN GH   ISg        0839 08.590              BER opt 90.0 0.1910  150  34 
 KLEF HHN GH    IAML      0839 10.550 3427.5  0.10 BER opt      0.55    150  34 
 MRON HHZ GH   IP         0838 53.890              BER opt 90.0 0.2310  164 311 
 MRON HHN GH   ISg        0839 12.160              BER opt 90.0-0.1710  164 311 
 MRON HHE GH    IAML      0839 14.680 1562.0  0.16 BER opt      0.28    164 311 
                                                                                
 2012 1029 1751 39.5 L   5.600  -0.486 22.1  BER  4 .10 3.1LBER                1
 GAP=254   BER 0.330      11.4     1.8  9.3  0.1399E+02  0.7721E+01  0.9278E+02E
 2012-10-29-1749-51S.NSN___015                                                 6
 OLDACT:REG 21-08-27 22:45 OP:opt  STATUS:               ID:20121029174950     3
 OLDACT:UP  21-08-28 13:10 OP:opt  STATUS:               ID:20121029174950     3
 OLDACT:UP  21-08-29 10:55 OP:opt  STATUS:               ID:20121029174950     3
 OLDACT:UP  21-08-29 13:00 OP:opt  STATUS:               ID:20121029174950     3
 OLDACT:UP  21-08-29 13:00 OP:opt  STATUS:               ID:20121029174950     3
 OLDACT:UP  21-12-03 13:13 OP:opt  STATUS:               ID:20121029174950     3
 OLDACT:UP  21-12-12 11:11 OP:opt  STATUS:               ID:20121029174950     3
 ACTION:UP  21-12-24 12:54 OP:opt  STATUS:               ID:20121029174950     I
 OLDACT:UP  21-12-23 17:34 OP:opt  STATUS:               ID:20121029174950     3
 STAT COM NTLO IPHASE   W HHMM SS.SSS   PAR1  PAR2 AGA OPE  AIN  RES W  DIS CAZ7
 KUKU HHZ GH   IP         1751 50.850              BER opt105.0-0.0210 66.7  11 
 KUKU HHN GH    IAML      1751 51.540  517.5  0.10 BER opt     -0.30   66.7  11 
 SHAI HHZ GH   IP         1751 51.620              BER opt 76.0 0.0810 71.2  58 
 SHAI HHN GH    IAML      1752 07.720  593.0  0.18 BER opt     -0.21   71.2  58 
 AKOS HHN GH    IAML      1751 58.240  496.5  0.10 BER opt     -0.09   98.6  38 
 MRON HHZ GH   IP         1752 02.440              BER opt 76.0-0.0410  142 312 
 MRON HHE GH   ISg        1752 19.020              BER opt 95.0 0.0410  142 312 
 MRON HHN GH    IAML      1752 23.220  292.0  0.12 BER opt     -0.07    142 312 
 KLEF HHZ GH   IP         1752 03.910              BER opt 76.0-0.0610  152  42 
 KLEF HHE GH    IAML      1752 05.570  749.0  0.48 BER opt      0.39    152  42 
 KLEF HHN GH    IAML      1752 21.710  577.5  0.18 BER opt      0.28    152  42 
                                                                                
 2012 1118 1325 59.9 L   5.892   0.039 4.00  BER  3 .20 2.9LBER                1
 GAP=203   BER 0.530       2.2     4.1  9.9  0.5321E-01  0.3542E+02  0.7042E+01E
 2012-11-18-1324-29S.NSN___018                                                 6
 OLDACT:REG 21-08-27 22:43 OP:opt  STATUS:               ID:20121118132428     3
 OLDACT:UP  21-08-29 13:15 OP:opt  STATUS:               ID:20121118132428     3
 OLDACT:UP  21-08-29 13:18 OP:opt  STATUS:               ID:20121118132428     3
 OLDACT:UP  21-12-03 13:13 OP:opt  STATUS:               ID:20121118132428     3
 OLDACT:UP  21-12-12 11:12 OP:opt  STATUS:               ID:20121118132428     3
 ACTION:UP  21-12-24 12:54 OP:opt  STATUS:               ID:20121118132428     I
 OLDACT:UP  21-12-23 17:35 OP:opt  STATUS:               ID:20121118132428     3
 STAT COM NTLO IPHASE   W HHMM SS.SSS   PAR1  PAR2 AGA OPE  AIN  RES W  DIS CAZ7
 SHAI HHZ GH   IP         1326 00.960              BER opt125.0-0.0810 5.62  28 
 SHAI HHE GH   ISg        1326 01.890              BER opt125.0 0.0510 5.62  28 
 SHAI HHN GH    IAML      1326 02.19016036.0  0.20 BER opt      0.18   5.62  28 
 AKOS HHN GH    IAML      1326 15.480  704.5  0.22 BER opt     -0.20   45.0   4 
 WEIJ HHN GH   IP         1326 08.460              BER opt 93.0-0.2210 53.2 231 
 WEIJ HHE GH   ISg        1326 14.960              BER opt 93.0 0.1310 53.2 231 
 WEIJ HHN GH    IAML      1326 19.800  242.5  0.34 BER opt     -0.57   53.2 231 
 MRON HHZ GH   IP         1326 28.980              BER opt 91.0 0.3010  175 291 
 MRON HHN GH   ISg        1326 48.660              BER opt 91.0-0.1810  175 291 
 MRON HHN GH    IAML      1326 52.160  545.0  0.22 BER opt      0.59    175 291 
                                                                                
 2012 1124 0300 46.4 L   5.436  -0.369 14.1  BER  3 .10 3.1LBER                1
 GAP=301   BER 0.370       3.4     2.4  5.9 -0.3044E+01  0.8436E+01 -0.1040E+02E
 2012-11-24-0258-50S.NSN___018                                                 6
 OLDACT:REG 21-08-27 22:42 OP:opt  STATUS:               ID:20121124025849     3
 OLDACT:UP  21-08-29 13:23 OP:opt  STATUS:               ID:20121124025849     3
 OLDACT:UP  21-12-03 13:13 OP:opt  STATUS:               ID:20121124025849     3
 OLDACT:UP  21-12-12 11:12 OP:opt  STATUS:               ID:20121124025849     3
 ACTION:UP  21-12-24 12:54 OP:opt  STATUS:               ID:20121124025849     I
 OLDACT:UP  21-12-23 17:35 OP:opt  STATUS:               ID:20121124025849     3
 STAT COM NTLO IPHASE   W HHMM SS.SSS   PAR1  PAR2 AGA OPE  AIN  RES W  DIS CAZ7
 WEIJ HHZ GH   IP         0300 49.930              BER opt127.0-0.1210 17.3  13 
 WEIJ HHN GH    IAML      0300 52.520 3504.0  0.20 BER opt     -0.10   17.3  13 
 KUKU HHZ GH   IP         0301 00.360              BER opt 90.0 0.1210 83.6   0 
 KUKU HHN GH   ISg        0301 09.950              BER opt 90.0-0.0110 83.6   0 
 KLEF HHN GH    IAML      0301 35.640  189.5  0.16 BER opt     -0.16    158  34 
 MRON HHN GH   IP         0301 13.060              BER opt 90.0 0.0510  164 314 
 MRON HHE GH   ISg        0301 31.630              BER opt 90.0-0.0410  164 314 
 MRON HHN GH    IAML      0301 34.540  469.5  0.20 BER opt      0.26    164 314 
                                                                                
 2012 1130 0804 46.4 L   5.509  -0.397 7.50  BER  4 .40 3.1LBER                1
 GAP=274   BER 0.980       9.4     3.3  8.0 -0.6510E+01  0.1245E+02 -0.8963E+01E
 2012-11-30-0802-48S.NSN___018                                                 6
 OLDACT:REG 21-08-27 22:41 OP:opt  STATUS:               ID:20121130080248     3
 OLDACT:UP  21-08-29 13:31 OP:opt  STATUS:               ID:20121130080248     3
 OLDACT:UP  21-12-03 13:13 OP:opt  STATUS:               ID:20121130080248     3
 OLDACT:UP  21-12-12 11:12 OP:opt  STATUS:               ID:20121130080248     3
 ACTION:UP  21-12-24 12:55 OP:opt  STATUS:               ID:20121130080248     I
 OLDACT:UP  21-12-23 17:35 OP:opt  STATUS:               ID:20121130080248     3
 STAT COM NTLO IPHASE   W HHMM SS.SSS   PAR1  PAR2 AGA OPE  AIN  RES W  DIS CAZ7
 WEIJ HHZ GH   IP         0804 48.230              BER opt124.0-0.4310 11.2  39 
 WEIJ HHN GH   ISg        0804 50.450              BER opt124.0 0.2210 11.2  39 
 WEIJ HHN GH    IAML      0804 50.550 3851.5  0.22 BER opt     -0.30   11.2  39 
 KUKU HHZ GH   IP         0804 58.610              BER opt 95.0-0.3010 75.6   2 
 KUKU HHE GH    IAML      0805 13.080  765.5  0.12 BER opt     -0.05   75.6   2 
 KLEF HHZ GH   IP         0805 12.360              BER opt 76.0 0.7210  153  37 
 KLEF HHN GH   ISg        0805 29.030              BER opt 93.0-0.2610  153  37 
 KLEF HHE GH    IAML      0805 34.090  596.0  0.18 BER opt      0.32    153  37 
 MRON HHZ GH   IP         0805 11.990              BER opt 76.0-0.1110  156 313 
 MRON HHN GH   ISg        0805 30.270              BER opt 92.0 0.1610  156 313 
 MRON HHE GH    IAML      0805 31.750  302.5  0.14 BER opt      0.04    156 313 
                                                                                
 2012 1130 1037 36.7 L   5.605  -0.312 6.40  BER  3 .30 2.6LBER                1
 GAP=238   BER 0.740       4.9     4.6  6.4 -0.7222E+01  0.1044E+02 -0.2745E+02E
 2012-11-30-1035-47S.NSN___018                                                 6
 OLDACT:REG 21-08-27 22:41 OP:opt  STATUS:               ID:20121130103547     3
 OLDACT:UP  21-08-29 14:59 OP:opt  STATUS:               ID:20121130103547     3
 OLDACT:UP  21-12-03 13:14 OP:opt  STATUS:               ID:20121130103547     3
 OLDACT:UP  21-12-12 11:12 OP:opt  STATUS:               ID:20121130103547     3
 ACTION:UP  21-12-24 12:55 OP:opt  STATUS:               ID:20121130103547     I
 OLDACT:UP  21-12-23 17:36 OP:opt  STATUS:               ID:20121130103547     3
 STAT COM NTLO IPHASE   W HHMM SS.SSS   PAR1  PAR2 AGA OPE  AIN  RES W  DIS CAZ7
 WEIJ HHZ GH   IP         1037 37.880              BER opt156.0 0.0110 2.91 233 
 WEIJ HHN GH   ISg        1037 38.700              BER opt156.0-0.0110 2.91 233 
 WEIJ HHN GH    IAML      1037 39.000 7694.5  0.22 BER opt      0.12   2.91 233 
 KUKU HHZ GH   IP         1037 47.060              BER opt 95.0-0.4110 65.3 355 
 KUKU HHN GH    IAML      1037 49.880  291.5  0.14 BER opt     -0.11   65.3 355 
 KUKU HHN GH   ISg        1037 55.270              BER opt 95.0 0.2410 65.3 355 
 MRON HHZ GH   IP         1038 02.830              BER opt 92.0 0.4010  157 307 
 MRON HHN GH   ISg        1038 20.230              BER opt 92.0-0.2310  157 307 
                                                                                
 2012 1206 1532 51.2 L   5.796  -0.296 15.0  BER  5 4.3 2.8LBER                1
 GAP=122   BER 11.13      24.7    28.4185.0 -0.9442E+02 -0.7597E+03 -0.3835E+03E
 2012-12-06-1530-54S.NSN___018                                                 6
 OLDACT:REG 21-08-27 22:40 OP:opt  STATUS:               ID:20121206153054     3
 OLDACT:UP  21-08-28 13:22 OP:opt  STATUS:               ID:20121206153054     3
 OLDACT:UP  21-08-29 15:05 OP:opt  STATUS:               ID:20121206153054     3
 OLDACT:UP  21-12-03 13:14 OP:opt  STATUS:               ID:20121206153054     3
 OLDACT:UP  21-12-12 11:13 OP:opt  STATUS:               ID:20121206153054     3
 OLDACT:UP  21-12-12 11:14 OP:opt  STATUS:               ID:20121206153054     3
 ACTION:UP  21-12-24 12:55 OP:opt  STATUS:               ID:20121206153054     I
 OLDACT:UP  21-12-23 17:36 OP:opt  STATUS:               ID:20121206153054     3
 STAT COM NTLO IPHASE   W HHMM SS.SSS   PAR1  PAR2 AGA OPE  AIN  RES W  DIS CAZ7
 WEIJ HHZ GH   IP         1532 54.400              BER opt120.0-1.3410 23.3 190 
 WEIJ HHN GH   ISg        1532 57.320              BER opt120.0-1.6210 23.3 190 
 WEIJ HHN GH    IAML      1532 59.920 1032.5  0.18 BER opt     -0.18   23.3 190 
 SHAI HHZ GH   IP         1533 03.450              BER opt104.0 4.8410 42.7  68 
 KUKU HHZ GH   IP         1533 02.540              BER opt103.0 3.6310 44.6 350 
 KUKU HHN GH    IAML      1533 03.320  522.5  0.14 BER opt     -0.19   44.6 350 
 KLEF HHN GH   ISg        1533 16.180              BER opt 91.0-8.9210  122  42 
 KLEF HHZ GH   IP         1533 16.380              BER opt 91.0 5.2510  122  42 
 KLEF HHN GH    IAML      1533 35.730  464.5  0.20 BER opt      0.37    122  42 
 MRON HHZ GH   IP         1533 14.260              BER opt 91.0-0.7710  146 300 
 MRON HHN GH   ISg        1533 30.660              BER opt 91.0-1.0710  146 300 
                                                                                
