 2014 0121 1819 06.9 L   5.786  -0.420 1.10  BER  4 .10 2.9LBER                1
 GAP=147   BER 0.310     0.600   0.900  4.4  0.1076E+00 -0.3150E+00  0.4287E+00E
 2014-01-21-1818-02S.NSN___015                                                 6
 OLDACT:REG 21-09-16 23:16 OP:opt  STATUS:               ID:20140121181801     3
 OLDACT:UP  21-09-16 23:25 OP:opt  STATUS:               ID:20140121181801     3
 OLDACT:UP  21-12-03 13:29 OP:opt  STATUS:               ID:20140121181801     3
 OLDACT:UP  21-12-12 11:36 OP:opt  STATUS:               ID:20140121181801     3
 OLDACT:UP  21-12-23 17:48 OP:opt  STATUS:               ID:20140121181801     3
 ACTION:UP  21-12-24 12:57 OP:opt  STATUS:               ID:20140121181801     I
 OLDACT:UP  21-12-24 12:56 OP:opt  STATUS:               ID:20140121181801     3
 STAT COM NTLO IPHASE   W HHMM SS.SSS   PAR1  PAR2 AGA OPE  AIN  RES W  DIS CAZ7
 WEIJ HHZ GH   IP         1819 10.810              BER opt 75.0-0.0510 23.9 156 
 WEIJ HHZ GH   EP         1819 10.810              BER opt 75.0-0.0510 23.9 156 
 WEIJ HHE GH   ISg        1819 13.850              BER opt 93.0 0.0610 23.9 156 
 WEIJ HHE GH    IAML      1819 14.340 1670.0  0.42 BER opt     -0.15   23.9 156 
 KUKU HHE GH   IP         1819 14.460              BER opt 75.0 0.1010 45.2   7 
 KUKU HHE GH   ISg        1819 19.860              BER opt 92.0-0.0810 45.2   7 
 KUKU HHN GH    IAML      1819 21.790  785.0  0.30 BER opt     -0.13   45.2   7 
 KLEF HHZ GH   IP         1819 28.510              BER opt 75.0-0.0910  132  46 
 KLEF HHN GH   ISg        1819 45.040              BER opt 91.0 0.0810  132  46 
 KLEF HHN GH    IAML      1819 51.820  329.5  0.22 BER opt      0.17    132  46 
 MRON HHE GH   ISg        1819 45.900              BER opt 91.0 0.0210  135 304 
 MRON HHN GH    IAML      1819 47.680  275.0  0.16 BER opt      0.11    135 304 
                                                                                
 2014 0205 1636 08.4 L   6.104  -0.052 3.30  BER  4 .10 2.8LBER                1
 GAP=241   BER 0.410       5.4     1.7 21.6 -0.8148E+01 -0.2287E+02  0.8395E+02E
 2014-02-05-1634-34S.NSN___015                                                 6
 OLDACT:REG 21-08-27 20:06 OP:opt  STATUS:               ID:20140205163434     3
 OLDACT:UP  21-08-28 15:46 OP:opt  STATUS:               ID:20140205163434     3
 OLDACT:UP  21-08-29 22:55 OP:opt  STATUS:               ID:20140205163434     3
 OLDACT:UP  21-08-29 22:58 OP:opt  STATUS:               ID:20140205163434     3
 OLDACT:UP  21-12-03 13:29 OP:opt  STATUS:               ID:20140205163434     3
 OLDACT:UP  21-12-12 11:36 OP:opt  STATUS:               ID:20140205163434     3
 ACTION:UP  21-12-24 12:57 OP:opt  STATUS:               ID:20140205163434     I
 OLDACT:UP  21-12-23 17:48 OP:opt  STATUS:               ID:20140205163434     3
 STAT COM NTLO IPHASE   W HHMM SS.SSS   PAR1  PAR2 AGA OPE  AIN  RES W  DIS CAZ7
 AKOS HHZ GH   IP         1636 12.550              BER opt 96.0-0.0710 25.3  32 
 AKOS HHN GH   ISg        1636 15.570              BER opt 96.0-0.0010 25.3  32 
 AKOS HHE GH    IAML      1636 16.150 2669.5  0.18 BER opt      0.13   25.3  32 
 AKOS HHE GH    IAML      1636 16.160 2669.5  0.18 BER opt      0.13   25.3  32 
 KUKU HHZ GH   IP         1636 14.240              BER opt 94.0-0.1810 36.4 286 
 KUKU HHE GH   ISg        1636 18.650              BER opt 94.0 0.0010 36.4 286 
 KUKU HHT GH   ISg        1636 18.700              BER opt 94.0 0.0510 36.4 286 
 KUKU HHN GH   ISg        1636 18.750              BER opt 94.0 0.1010 36.4 286 
 KUKU HHN GH    IAML      1636 18.830  617.5  0.30 BER opt     -0.32   36.4 286 
 KUKU HHE GH    IAML      1636 22.400  640.5  0.16 BER opt     -0.30   36.4 286 
 KLEF HHZ GH   IP         1636 21.620              BER opt 92.0 0.3010 78.5  44 
 KLEF HHN GH   ISg        1636 30.240              BER opt 92.0-0.1310 78.5  44 
 KLEF HHN GH    IAML      1636 32.510  696.0  0.12 BER opt      0.18   78.5  44 
 MRON HHZ GH   IP         1636 34.340              BER opt 91.0-0.0810  158 285 
 MRON HHE GH    IAML      1636 37.020  239.0  0.14 BER opt      0.21    158 285 
 MRON HHN GH   ISg        1636 52.640              BER opt 91.0 0.0010  158 285 
                                                                                
 2014 0212 1849 34.6 L   5.456  -0.537 15.0  BER  5 .40 3.9LBER                1
 GAP=261   BER  1.01       6.0     3.2  9.9  0.4700E+01  0.1651E+02  0.7728E+01E
 2014-02-12-1846-47S.NSN___015                                                 6
 OLDACT:REG 21-08-27 20:05 OP:opt  STATUS:               ID:20140212184647     3
 OLDACT:UP  21-08-28 15:49 OP:opt  STATUS:               ID:20140212184647     3
 OLDACT:UP  21-08-29 22:59 OP:opt  STATUS:               ID:20140212184647     3
 OLDACT:UP  21-12-03 13:29 OP:opt  STATUS:               ID:20140212184647     3
 OLDACT:UP  21-12-12 11:36 OP:opt  STATUS:               ID:20140212184647     3
 ACTION:UP  21-12-24 12:57 OP:opt  STATUS:               ID:20140212184647     I
 OLDACT:UP  21-12-23 17:49 OP:opt  STATUS:               ID:20140212184647     3
 STAT COM NTLO IPHASE   W HHMM SS.SSS   PAR1  PAR2 AGA OPE  AIN  RES W  DIS CAZ7
 WEIJ HHZ GH   IP         1849 39.940              BER opt116.0 0.2510 26.9  57 
 WEIJ HHN GH   ISg        1849 42.670              BER opt116.0-0.5610 26.9  57 
 WEIJ HHN GH    IAML      1849 43.070 6117.0  0.38 BER opt     -0.45   26.9  57 
 KUKU HHZ GH   IP         1849 48.120              BER opt 92.0-0.3710 83.5  13 
 KUKU HHN GH   ISg        1849 58.450              BER opt 92.0 0.2610 83.5  13 
 KUKU HHE GH    IAML      1850 00.910 5986.5  0.12 BER opt      0.13   83.5  13 
 AKOS HHZ GH   IP         1849 53.390              BER opt 91.0-0.0510  115  36 
 AKOS HHN GH    IAML      1849 55.970 2488.5  0.22 BER opt     -0.04    115  36 
 MRON HHZ GH   IP         1849 59.550              BER opt 91.0 0.5710  150 318 
 MRON HHN GH   ISg        1850 15.560              BER opt 91.0-0.4610  150 318 
 MRON HHN GH    IAML      1850 20.410 1636.0  0.46 BER opt     -0.03    150 318 
 KLEF HHZ GH   IP         1850 01.810              BER opt 76.0-0.0210  168  40 
 KLEF HHN GH    IAML      1850 02.390 3594.0  0.12 BER opt      0.40    168  40 
 KLEF HHN GH   ISg        1850 21.280              BER opt 91.0 0.3810  168  40 
                                                                                
 2014 0213 0804 56.2 L   5.557  -0.282 14.3  BER  5 .90 3.1LBER                1
 GAP=267   BER  2.31      17.6     8.1 15.2 -0.3767E+02 -0.4062E+01 -0.2001E+03E
 2014-02-13-0803-12S.NSN___015                                                 6
 OLDACT:REG 21-08-27 20:03 OP:opt  STATUS:               ID:20140213080311     3
 OLDACT:UP  21-09-09 13:39 OP:opt  STATUS:               ID:20140213080311     3
 OLDACT:UP  21-12-03 13:30 OP:opt  STATUS:               ID:20140213080311     3
 OLDACT:UP  21-12-12 11:36 OP:opt  STATUS:               ID:20140213080311     3
 ACTION:UP  21-12-24 12:57 OP:opt  STATUS:               ID:20140213080311     I
 OLDACT:UP  21-12-23 17:49 OP:opt  STATUS:               ID:20140213080311     3
 STAT COM NTLO IPHASE   W HHMM SS.SSS   PAR1  PAR2 AGA OPE  AIN  RES W  DIS CAZ7
 WEIJ HHZ GH   IP         0804 58.830              BER opt155.0 0.0410 6.65 302 
 WEIJ HHN GH   ISg        0805 00.580              BER opt155.0-0.0510 6.65 302 
 WEIJ HHE GH    IAML      0805 00.870 4161.0  0.18 BER opt     -0.24   6.65 302 
 KUKU HHZ GH   IP         0805 08.270              BER opt 91.0 0.2510 70.9 352 
 KUKU HHN GH   ISg        0805 16.590              BER opt 91.0 0.2710 70.9 352 
 KUKU HHE GH    IAML      0805 20.600 1080.5  0.12 BER opt      0.01   70.9 352 
 AKOS HHZ GH   IP         0805 11.820              BER opt 91.0 0.6610 90.7  25 
 AKOS HHE GH   ISg        0805 22.970              BER opt 91.0 1.3110 90.7  25 
 KLEF HHN GH   ISg        0805 33.480              BER opt 90.0-1.9510  142  34 
 KLEF HHN GH    IAML      0805 36.970  608.5  0.10 BER opt      0.23    142  34 
 MRON HHE GH   ISg        0805 40.530              BER opt 90.0-0.5410  163 308 
 MRON HHN GH    IAML      0805 51.170  176.0  47.2 BER opt              163 308 
                                                                                
 2014 0213 0811 26.8 L   5.621  -0.264 1.70  BER  5 2.0 3.3LBER                1
 GAP=210   BER  5.28      29.1    15.7239.0 -0.1578E+03 -0.2635E+03 -0.5473E+04E
 2014-02-13-0809-40S.NSN___015                                                 6
 OLDACT:REG 21-08-27 20:02 OP:opt  STATUS:               ID:20140213080939     3
 OLDACT:UP  21-08-29 23:20 OP:opt  STATUS:               ID:20140213080939     3
 OLDACT:UP  21-08-29 23:21 OP:opt  STATUS:               ID:20140213080939     3
 OLDACT:UP  21-12-03 13:30 OP:opt  STATUS:               ID:20140213080939     3
 OLDACT:UP  21-12-12 11:36 OP:opt  STATUS:               ID:20140213080939     3
 ACTION:UP  21-12-24 12:58 OP:opt  STATUS:               ID:20140213080939     I
 OLDACT:UP  21-12-23 17:49 OP:opt  STATUS:               ID:20140213080939     3
 STAT COM NTLO IPHASE   W HHMM SS.SSS   PAR1  PAR2 AGA OPE  AIN  RES W  DIS CAZ7
 WEIJ HHZ GH   IP         0811 27.230              BER opt 99.0-0.9810 8.50 245 
 WEIJ HHE GH   ISg        0811 29.070              BER opt 99.0-0.1610 8.50 245 
 WEIJ HHN GH    IAML      0811 29.40016205.0  0.20 BER opt     -0.08   8.50 245 
 KUKU HHZ GH   IP         0811 36.580              BER opt 91.0-0.7610 64.3 350 
 KUKU HHN GH   ISg        0811 44.560              BER opt 91.0-0.2010 64.3 350 
 KUKU HHE GH    IAML      0811 46.570 1706.0  0.12 BER opt      0.01   64.3 350 
 AKOS HHZ GH   IP         0811 39.670              BER opt 91.0-0.8210 83.4  26 
 AKOS HHN GH   ISg        0811 51.030              BER opt 91.0 0.9310 83.4  26 
 AKOS HHE GH    IAML      0811 52.400  619.0  0.26 BER opt     -0.27   83.4  26 
 KLEF HHZ GH   IP         0811 47.920              BER opt 90.0-0.9810  135  35 
 KLEF HHN GH   ISg        0812 04.340              BER opt 90.0-0.0510  135  35 
 KLEF HHE GH    IAML      0812 05.620 1092.5  0.50 BER opt      0.31    135  35 
 MRON HHZ GH   IP         0811 58.550              BER opt 90.0 5.5110  160 306 
 MRON HHE GH   ISg        0812 08.940              BER opt 90.0-2.4910  160 306 
 MRON HHN GH    IAML      0812 09.970  416.5  0.18 BER opt      0.02    160 306 
                                                                                
 2014 0223 1519 46.7 L   5.787  -0.397 0.00  BER  4 .20 2.6LBER                1
 GAP=141   BER 0.520     1.000          8.3  0.2231E+00  0.5727E+00  0.8888E+00E
 2014-02-23-1518-10S.NSN___015                                                 6
 OLDACT:REG 21-08-27 19:58 OP:opt  STATUS:               ID:20140223151809     3
 OLDACT:UP  21-08-28 15:52 OP:opt  STATUS:               ID:20140223151809     3
 OLDACT:UP  21-08-29 23:23 OP:opt  STATUS:               ID:20140223151809     3
 OLDACT:UP  21-08-29 23:28 OP:opt  STATUS:               ID:20140223151809     3
 OLDACT:UP  21-12-03 13:30 OP:opt  STATUS:               ID:20140223151809     3
 OLDACT:UP  21-12-12 11:37 OP:opt  STATUS:               ID:20140223151809     3
 ACTION:UP  21-12-24 12:58 OP:opt  STATUS:               ID:20140223151809     I
 OLDACT:UP  21-12-23 17:49 OP:opt  STATUS:               ID:20140223151809     3
 STAT COM NTLO IPHASE   W HHMM SS.SSS   PAR1  PAR2 AGA OPE  AIN  RES W  DIS CAZ7
 WEIJ HHZ GH   IP         1519 50.540              BER opt 75.0-0.0110 23.0 162 
 WEIJ HHE GH   ISg        1519 53.300              BER opt 91.0-0.0110 23.0 162 
 WEIJ HHN GH    IAML      1519 54.900  824.0  0.30 BER opt     -0.26   23.0 162 
 KUKU HHZ GH   IP         1519 54.090              BER opt 75.0-0.0610 45.0   4 
 KUKU HHN GH   ISg        1519 59.790              BER opt 90.0 0.1510 45.0   4 
 KUKU HHN GH    IAML      1520 05.290  194.0  0.12 BER opt     -0.52   45.0   4 
 AKOS HHE GH    IAML      1520 13.800  226.0  0.20 BER opt     -0.14   76.5  42 
 KLEF HHZ GH   IP         1520 08.130              BER opt 75.0-0.0110  130  45 
 KLEF HHN GH   ISg        1520 24.120              BER opt 90.0-0.1110  130  45 
 KLEF HHE GH    IAML      1520 29.850  540.0  0.14 BER opt      0.59    130  45 
 MRON HHZ GH   IP         1520 09.650      D       BER opt 75.0 0.3510  137 303 
 MRON HHE GH   ISg        1520 25.970              BER opt 90.0-0.2910  137 303 
 MRON HHN GH    IAML      1520 27.090  257.5  0.14 BER opt      0.31    137 303 
                                                                                
 2014 0227 1515 32.5 L   6.276  -0.112 14.1  BER  4 .70 2.5LBER                1
 GAP=166   BER  1.77       8.0     7.3 13.4 -0.3415E+02 -0.4960E+02  0.2748E+02E
 2014-02-27-1515-08S.NSN___015                                                 6
 OLDACT:REG 21-09-16 23:17 OP:opt  STATUS:               ID:20140227151508     3
 OLDACT:UP  21-09-16 23:31 OP:opt  STATUS:               ID:20140227151508     3
 OLDACT:UP  21-12-03 13:30 OP:opt  STATUS:               ID:20140227151508     3
 OLDACT:UP  21-12-12 11:37 OP:opt  STATUS:               ID:20140227151508     3
 ACTION:UP  21-12-24 12:58 OP:opt  STATUS:               ID:20140227151508     I
 OLDACT:UP  21-12-23 17:49 OP:opt  STATUS:               ID:20140227151508     3
 STAT COM NTLO IPHASE   W HHMM SS.SSS   PAR1  PAR2 AGA OPE  AIN  RES W  DIS CAZ7
 AKOS HHZ GH   IP         1515 36.170              BER opt125.0-0.3610 20.0  83 
 KUKU HHZ GH   IP         1515 37.920              BER opt115.0-0.0110 29.9 252 
 KUKU HHN GH   ISg        1515 41.860              BER opt115.0 0.1210 29.9 252 
 KUKU HHN GH    IAML      1515 42.360  438.0  0.28 BER opt     -0.18   29.9 252 
 KLEF HHZ GH   IP         1515 45.100              BER opt 76.0 0.6410 71.6  58 
 KLEF HHE GH    IAML      1515 58.690  256.5  0.12 BER opt      0.05   71.6  58 
 WEIJ HHZ GH   IP         1515 44.490              BER opt 76.0-1.2610 79.8 198 
 WEIJ HHN GH    IAML      1515 44.880  276.0  0.22 BER opt      0.14   79.8 198 
 WEIJ HHN GH   ISg        1515 56.010              BER opt100.0 0.8810 79.8 198 
                                                                                
 2014 0301 1819 30.5 L   5.738  -0.471 21.1  BER  3 .20 3.1LBER                1
 GAP=236   BER 0.610       2.3     4.9  4.8  0.2888E+01 -0.5534E+01 -0.7073E+01E
 2014-03-01-1817-55S.NSN___015                                                 6
 OLDACT:REG 21-08-27 16:01 OP:opt  STATUS:               ID:20140301181754     3
 OLDACT:UP  21-08-28 15:54 OP:opt  STATUS:               ID:20140301181754     3
 OLDACT:UP  21-08-29 23:29 OP:opt  STATUS:               ID:20140301181754     3
 OLDACT:UP  21-12-03 13:30 OP:opt  STATUS:               ID:20140301181754     3
 OLDACT:UP  21-12-03 13:30 OP:opt  STATUS:               ID:20140301181754     3
 OLDACT:UP  21-12-12 11:37 OP:opt  STATUS:               ID:20140301181754     3
 OLDACT:UP  21-12-23 17:50 OP:opt  STATUS:               ID:20140301181754     3
 ACTION:UP  21-12-24 12:58 OP:opt  STATUS:               ID:20140301181754     I
 OLDACT:UP  21-12-23 17:50 OP:opt  STATUS:               ID:20140301181754     3
 STAT COM NTLO IPHASE   W HHMM SS.SSS   PAR1  PAR2 AGA OPE  AIN  RES W  DIS CAZ7
 WEIJ HHZ GH   IP         1819 35.890              BER opt132.0 0.3410 22.5 137 
 WEIJ HHE GH   ISg        1819 38.860              BER opt132.0-0.2110 22.5 137 
 WEIJ HHN GH    IAML      1819 40.010 3026.0  0.36 BER opt     -0.01   22.5 137 
 KUKU HHZ GH   IP         1819 39.280              BER opt109.0-0.2910 51.5  13 
 KUKU HHN GH   ISg        1819 46.080              BER opt109.0 0.1610 51.5  13 
 KUKU HHN GH    IAML      1819 51.260  741.0  0.12 BER opt     -0.29   51.5  13 
 KUKU HHE GH    IAML      1819 51.260 1692.0  0.12 BER opt      0.07   51.5  13 
 KLEF HHZ GH   IP         1819 53.190              BER opt 76.0-0.0310  140  46 
 KLEF HHN GH   ISg        1820 09.420              BER opt 95.0 0.0210  140  46 
 KLEF HHE GH    IAML      1820 14.690  562.0  0.48 BER opt      0.20    140  46 
                                                                                
 2014 0308 2303 35.7 L   5.388  -0.380 10.5  BER  4 .20 3.7LBER                1
 GAP=327   BER 0.640       9.9     8.7  8.8 -0.6869E+02 -0.5614E+02  0.6707E+02E
 2014-03-08-2301-40S.NSN___015                                                 6
 OLDACT:REG 21-08-27 15:59 OP:opt  STATUS:               ID:20140308230140     3
 OLDACT:UP  21-08-28 15:57 OP:opt  STATUS:               ID:20140308230140     3
 OLDACT:UP  21-08-29 23:31 OP:opt  STATUS:               ID:20140308230140     3
 OLDACT:UP  21-12-03 13:31 OP:opt  STATUS:               ID:20140308230140     3
 OLDACT:UP  21-12-12 11:37 OP:opt  STATUS:               ID:20140308230140     3
 ACTION:UP  21-12-24 12:58 OP:opt  STATUS:               ID:20140308230140     I
 OLDACT:UP  21-12-23 17:50 OP:opt  STATUS:               ID:20140308230140     3
 STAT COM NTLO IPHASE   W HHMM SS.SSS   PAR1  PAR2 AGA OPE  AIN  RES W  DIS CAZ7
 WEIJ HHZ GH   IP         2303 40.060              BER opt115.0 0.2610 22.8  13 
 WEIJ HHE GH   ISg        2303 42.380              BER opt115.0-0.3210 22.8  13 
 WEIJ HHN GH    IAML      2303 42.760 7467.5  0.20 BER opt     -0.36   22.8  13 
 KUKU HHZ GH   IP         2303 50.480              BER opt 96.0 0.0910 89.0   1 
 AKOS HHE GH   ISg        2304 07.350              BER opt 95.0 0.2010  112  26 
 AKOS HHN GH    IAML      2304 09.640 1145.5  0.10 BER opt     -0.28    112  26 
 KLEF HHZ GH   IP         2304 02.030              BER opt 76.0-0.3010  163  34 
 KLEF HHN GH   ISg        2304 21.400              BER opt 93.0 0.0710  163  34 
 KLEF HHN GH    IAML      2304 22.860 3703.5  0.10 BER opt      0.50    163  34 
 MRON HHN GH    IAML      2304 24.450 1460.0  0.14 BER opt      0.12    167 316 
                                                                                
